place_idx,place_name,place_county,place_po_start,place_po_end,gnis_idx,gnis_id,gnis_name,gnis_county,gnis_feature_class,confidence,match_strategy,notes,Place_Name,County,place_lat,place_lon,gaz_id,gnis_lat,gnis_lon,distance_miles
0,Aaron,Benton,1889.0,1890.0,6369.0,1275414.0,Aaron Branch,Scott,Stream,80.0,NAME_VARIATION,Name variation: aaron branch,Aaron,Benton,36.0773,-88.0589,1275414,36.4745,-84.5872,195.31723681499227
0,Aaron,Benton,1889.0,1890.0,6482.0,1275413.0,Aaron Branch,Lawrence,Stream,80.0,NAME_VARIATION,Name variation: aaron branch,Aaron,Benton,36.0773,-88.0589,1275413,35.2145,-87.3972,70.24719174563242
0,Aaron,Benton,1889.0,1890.0,10730.0,1304754.0,Aaron Branch,Jackson,Stream,80.0,NAME_VARIATION,Name variation: aaron branch,Aaron,Benton,36.0773,-88.0589,1304754,36.3545,-85.6472,135.8004313564703
1,Aaron,Bradley,1860.0,1860.0,6369.0,1275414.0,Aaron Branch,Scott,Stream,80.0,NAME_VARIATION,Name variation: aaron branch,Aaron,Bradley,35.159,-84.8766,1275414,36.4745,-84.5872,92.33270990899129
1,Aaron,Bradley,1860.0,1860.0,6482.0,1275413.0,Aaron Branch,Lawrence,Stream,80.0,NAME_VARIATION,Name variation: aaron branch,Aaron,Bradley,35.159,-84.8766,1275413,35.2145,-87.3972,142.3910186304057
1,Aaron,Bradley,1860.0,1860.0,10730.0,1304754.0,Aaron Branch,Jackson,Stream,80.0,NAME_VARIATION,Name variation: aaron branch,Aaron,Bradley,35.159,-84.8766,1304754,36.3545,-85.6472,93.22387010515459
2,Aaron,Knox,,,6369.0,1275414.0,Aaron Branch,Scott,Stream,80.0,NAME_VARIATION,Name variation: aaron branch,Aaron,Knox,36.0045,-83.9372,1275414,36.4745,-84.5872,48.65092634341152
2,Aaron,Knox,,,6482.0,1275413.0,Aaron Branch,Lawrence,Stream,80.0,NAME_VARIATION,Name variation: aaron branch,Aaron,Knox,36.0045,-83.9372,1275413,35.2145,-87.3972,201.87737972060387
2,Aaron,Knox,,,10730.0,1304754.0,Aaron Branch,Jackson,Stream,80.0,NAME_VARIATION,Name variation: aaron branch,Aaron,Knox,36.0045,-83.9372,1304754,36.3545,-85.6472,98.38977681952203
9,Abrams Chapel,Hardin,,,19101.0,1275433.0,Abrams Gap,Blount,Gap,75.0,FIRST_WORD,"First word match, different county",Abrams Chapel,Hardin,35.1845,-88.2472,1275433,35.6856,-83.9207,246.00451261509076
9,Abrams Chapel,Hardin,,,2328.0,1275431.0,Abrams Falls,Blount,Falls,75.0,FIRST_WORD,"First word match, different county",Abrams Chapel,Hardin,35.1845,-88.2472,1275431,35.6856,-83.9207,246.00451261509076
9,Abrams Chapel,Hardin,,,12690.0,1304758.0,Abrams Creek,Blount,Stream,75.0,FIRST_WORD,"First word match, different county",Abrams Chapel,Hardin,35.1845,-88.2472,1304758,35.6856,-83.9207,246.00451261509076
12,Acedemia,Knox,1835.0,1858.0,27710.0,1647494.0,Macedonia,Haywood,Populated Place,70.0,FUZZY_GENERAL,"Fuzzy match (score: 70.58823529411764), different county",Acedemia,Knox,36.0045,-83.9372,1647494,35.5645,-89.2472,299.15461373020787
12,Acedemia,Knox,1835.0,1858.0,28045.0,1311939.0,Macedonia,Sumner,Populated Place,70.0,FUZZY_GENERAL,"Fuzzy match (score: 70.58823529411764), different county",Acedemia,Knox,36.0045,-83.9372,1311939,36.4645,-86.4672,144.54118753875173
12,Acedemia,Knox,1835.0,1858.0,28942.0,1310126.0,Macedonia,Monroe,Populated Place,70.0,FUZZY_GENERAL,"Fuzzy match (score: 70.58823529411764), different county",Acedemia,Knox,36.0045,-83.9372,1310126,35.4445,-84.2372,42.19568589204251
17,Acres,Benton,1881.0,1881.0,28468.0,1281601.0,Creson,Lincoln,Populated Place,70.0,FUZZY_GENERAL,"Fuzzy match (score: 72.72727272727273), different county",Acres,Benton,36.0773,-88.0589,1281601,35.0745,-86.6472,105.33389107905502
17,Acres,Benton,1881.0,1881.0,32306.0,1327502.0,Barnes,Washington,Populated Place,70.0,FUZZY_GENERAL,"Fuzzy match (score: 72.72727272727273), different county",Acres,Benton,36.0773,-88.0589,1327502,36.2945,-82.5072,309.9338886249476
17,Acres,Benton,1881.0,1881.0,33383.0,1276340.0,Barnes,Pickett,Populated Place,70.0,FUZZY_GENERAL,"Fuzzy match (score: 72.72727272727273), different county",Acres,Benton,36.0773,-88.0589,1276340,36.5645,-85.0472,171.00788722616184
18,Acting,Loudon,1890.0,1903.0,27690.0,1306664.0,Lancing,Morgan,Populated Place,70.0,FUZZY_GENERAL,"Fuzzy match (score: 76.92307692307692), different county",Acting,Loudon,35.7345,-84.3372,1306664,36.1145,-84.6472,31.469228302974127
18,Acting,Loudon,1890.0,1903.0,30088.0,1275443.0,Acton,McNairy,Populated Place,70.0,FUZZY_GENERAL,"Fuzzy match (score: 72.72727272727273), different county",Acting,Loudon,35.7345,-84.3372,1275443,35.1945,-88.5472,239.83165209261728
18,Acting,Loudon,1890.0,1903.0,1221.0,1307457.0,Farthing (historical),Johnson,Populated Place,70.0,FUZZY_GENERAL,"Fuzzy match (score: 71.42857142857143), different county",Acting,Loudon,35.7345,-84.3372,1307457,36.4545,-81.8472,147.65440966239697
22,Ada,Giles,1895.0,1898.0,28452.0,1304763.0,Adams,Robertson,Populated Place,70.0,FUZZY_GENERAL,"Fuzzy match (score: 75.0), different county",Ada,Giles,35.1845,-87.0472,1304763,36.5145,-86.8672,92.45103214145948
22,Ada,Giles,1895.0,1898.0,29013.0,1275447.0,Adair,Madison,Populated Place,70.0,FUZZY_GENERAL,"Fuzzy match (score: 75.0), different county",Ada,Giles,35.1845,-87.0472,1275447,35.6145,-88.8972,108.35017159659616
23,Ada,Henderson,1880.0,1887.0,28452.0,1304763.0,Adams,Robertson,Populated Place,70.0,FUZZY_GENERAL,"Fuzzy match (score: 75.0), different county",Ada,Henderson,35.6645,-88.3972,1304763,36.5145,-86.8672,103.6706799352471
23,Ada,Henderson,1880.0,1887.0,29013.0,1275447.0,Adair,Madison,Populated Place,70.0,FUZZY_GENERAL,"Fuzzy match (score: 75.0), different county",Ada,Henderson,35.6645,-88.3972,1275447,35.6145,-88.8972,28.28950280682037
26,Adairs Station,Knox,,,29441.0,1306878.0,Park Station,Maury,Populated Place,70.0,FUZZY_GENERAL,"Fuzzy match (score: 76.92307692307692), different county",Adairs Station,Knox,36.0045,-83.9372,1306878,35.6145,-87.0472,176.33461496307183
26,Adairs Station,Knox,,,29189.0,1294080.0,Miser Station,Blount,Populated Place,70.0,FUZZY_GENERAL,"Fuzzy match (score: 74.07407407407408), different county",Adairs Station,Knox,36.0045,-83.9372,1294080,35.6856,-83.9207,22.054591667221242
26,Adairs Station,Knox,,,28908.0,1297430.0,Pierce Station,Obion,Populated Place,70.0,FUZZY_GENERAL,"Fuzzy match (score: 71.42857142857143), different county",Adairs Station,Knox,36.0045,-83.9372,1297430,36.3245,-89.1972,294.22046422119934
31,Adamsburg,Benton,,1858.0,28683.0,1286632.0,Hamburg,Hardin,Populated Place,70.0,FUZZY_GENERAL,"Fuzzy match (score: 75.0), different county",Adamsburg,Benton,36.0773,-88.0589,1286632,35.1845,-88.2472,62.59014102325205
31,Adamsburg,Benton,,1858.0,30025.0,1300630.0,Samburg,Obion,Populated Place,70.0,FUZZY_GENERAL,"Fuzzy match (score: 75.0), different county",Adamsburg,Benton,36.0773,-88.0589,1300630,36.3245,-89.1972,65.72750254462107
31,Adamsburg,Benton,,1858.0,33109.0,1286631.0,Hamburg,Marion,Populated Place,70.0,FUZZY_GENERAL,"Fuzzy match (score: 75.0), different county",Adamsburg,Benton,36.0773,-88.0589,1286631,35.1145,-85.6472,150.94779453782368
59,Akinton,Hardin,,1887.0,34046.0,1290257.0,Kingston,Roane,Populated Place,70.0,FUZZY_GENERAL,"Fuzzy match (score: 80.0), different county",Akinton,Hardin,35.1845,-88.2472,1290257,35.8645,-84.5372,213.84685793896747
59,Akinton,Hardin,,1887.0,29137.0,1313232.0,Lanton,Maury,Populated Place,70.0,FUZZY_GENERAL,"Fuzzy match (score: 76.92307692307692), different county",Akinton,Hardin,35.1845,-88.2472,1313232,35.6145,-87.0472,73.8301414694391
59,Akinton,Hardin,,1887.0,32531.0,1291350.0,Linton,Davidson,Populated Place,70.0,FUZZY_GENERAL,"Fuzzy match (score: 76.92307692307692), different county",Akinton,Hardin,35.1845,-88.2472,1291350,36.1667,-86.7844,106.52262065190631
69,Alburn,Cannon,,1901.0,29908.0,1275936.0,Ashburn,Robertson,Populated Place,70.0,FUZZY_GENERAL,"Fuzzy match (score: 76.92307692307692), different county",Alburn,Cannon,35.8095,-86.0583,1275936,36.5145,-86.8672,66.40220075844003
69,Alburn,Cannon,,1901.0,30347.0,1305550.0,Burns,Dickson,Populated Place,70.0,FUZZY_GENERAL,"Fuzzy match (score: 72.72727272727273), different county",Alburn,Cannon,35.8095,-86.0583,1305550,36.1345,-87.3972,78.16699993090324
69,Alburn,Cannon,,1901.0,28791.0,1304392.0,Washburn,Grainger,Populated Place,70.0,FUZZY_GENERAL,"Fuzzy match (score: 71.42857142857143), different county",Alburn,Cannon,35.8095,-86.0583,1304392,36.2845,-83.4972,146.79406608737324
76,Aldon,Perry,,1902.0,30187.0,1313558.0,Aulon,Shelby,Populated Place,70.0,FUZZY_GENERAL,"Fuzzy match (score: 80.0), different county",Aldon,Perry,35.6345,-87.8472,1313558,35.1345,-89.9372,122.69973937109896
76,Aldon,Perry,,1902.0,648.0,1313499.0,Walton (historical),Davidson,Populated Place,70.0,FUZZY_GENERAL,"Fuzzy match (score: 72.72727272727273), different county",Aldon,Perry,35.6345,-87.8472,1313499,36.1667,-86.7844,69.93462477259894
76,Aldon,Perry,,1902.0,27851.0,1315428.0,London,Cocke,Populated Place,70.0,FUZZY_GENERAL,"Fuzzy match (score: 72.72727272727273), different county",Aldon,Perry,35.6345,-87.8472,1315428,35.9345,-83.134,264.977101394147
79,Alex,Davidson,,1890.0,17048.0,1275543.0,Alex Hollow,Perry,Valley,80.0,NAME_VARIATION,Name variation: alex hollow,Alex,Davidson,36.1667,-86.7844,1275543,35.6345,-87.8472,69.93462477259894
79,Alex,Davidson,,1890.0,6844.0,1275541.0,Alex Branch,Sequatchie,Stream,80.0,NAME_VARIATION,Name variation: alex branch,Alex,Davidson,36.1667,-86.7844,1275541,35.4045,-85.3872,94.37647499028888
79,Alex,Davidson,,1890.0,10223.0,1275542.0,Alex Branch,Morgan,Stream,80.0,NAME_VARIATION,Name variation: alex branch,Alex,Davidson,36.1667,-86.7844,1275542,36.1145,-84.6472,119.31062755952512
90,Alisonia,Franklin,1850.0,1851.0,29123.0,1304808.0,Allisona,Williamson,Populated Place,77.5,FUZZY_GENERAL,"Fuzzy match (score: 87.5), different county",Alisonia,Franklin,35.1545,-86.0972,1304808,35.8745,-86.8672,65.95862102040488
90,Alisonia,Franklin,1850.0,1851.0,29123.0,1304808.0,Allisona,Williamson,Populated Place,77.5,FUZZY_GENERAL,"Fuzzy match (score: 87.5), different county",Alisonia,Franklin,35.1545,-86.0972,1304808,35.8445,-86.3972,50.57591320131632
90,Alisonia,Franklin,1850.0,1851.0,29124.0,1304808.0,Allisona,Rutherford,Populated Place,77.5,FUZZY_GENERAL,"Fuzzy match (score: 87.5), different county",Alisonia,Franklin,35.1545,-86.0972,1304808,35.8745,-86.8672,65.95862102040488
90,Alisonia,Franklin,1850.0,1851.0,29124.0,1304808.0,Allisona,Rutherford,Populated Place,77.5,FUZZY_GENERAL,"Fuzzy match (score: 87.5), different county",Alisonia,Franklin,35.1545,-86.0972,1304808,35.8445,-86.3972,50.57591320131632
97,Allendale,Claiborne,,,32911.0,1283661.0,Ellendale,Shelby,Populated Place,78.88888888888889,FUZZY_GENERAL,"Fuzzy match (score: 88.88888888888889), different county",Allendale,Claiborne,36.4945,-83.6972,1283661,35.1345,-89.9372,361.9724644185303
97,Allendale,Claiborne,,,33115.0,1308407.0,Allandale,Hawkins,Populated Place,78.88888888888889,FUZZY_GENERAL,"Fuzzy match (score: 88.88888888888889), different county",Allendale,Claiborne,36.4945,-83.6972,1308407,36.4345,-82.9472,41.883103661137326
102,Allens Creek,Sullivan,,1920.0,982.0,1649942.0,Allens Creek (historical),Lewis,Populated Place,90.0,FUZZY_GENERAL,"Fuzzy match (score: 100.0), different county",Allens Creek,Sullivan,36.5145,-82.2872,1649942,35.4845,-87.4972,299.77286257809686
102,Allens Creek,Sullivan,,1920.0,6423.0,1275609.0,Allens Creek,Lewis,Stream,90.0,FUZZY_GENERAL,"Fuzzy match (score: 100.0), different county",Allens Creek,Sullivan,36.5145,-82.2872,1275609,35.4845,-87.4972,299.77286257809686
102,Allens Creek,Sullivan,,1920.0,6423.0,1275609.0,Allens Creek,Lewis,Stream,90.0,FUZZY_GENERAL,"Fuzzy match (score: 100.0), different county",Allens Creek,Sullivan,36.5145,-82.2872,1275609,35.3145,-87.7472,316.5491542409283
102,Allens Creek,Sullivan,,1920.0,6424.0,1275609.0,Allens Creek,Wayne,Stream,90.0,FUZZY_GENERAL,"Fuzzy match (score: 100.0), different county",Allens Creek,Sullivan,36.5145,-82.2872,1275609,35.4845,-87.4972,299.77286257809686
102,Allens Creek,Sullivan,,1920.0,6424.0,1275609.0,Allens Creek,Wayne,Stream,90.0,FUZZY_GENERAL,"Fuzzy match (score: 100.0), different county",Allens Creek,Sullivan,36.5145,-82.2872,1275609,35.3145,-87.7472,316.5491542409283
109,Allentown,Carter,,,27604.0,1639803.0,Haletown,Marion,Populated Place,72.35294117647058,FUZZY_GENERAL,"Fuzzy match (score: 82.35294117647058), different county",Allentown,Carter,36.2989,-82.154,1639803,35.1145,-85.6472,212.37967822738446
109,Allentown,Carter,,,27604.0,1639803.0,Haletown,Marion,Populated Place,72.35294117647058,FUZZY_GENERAL,"Fuzzy match (score: 82.35294117647058), different county",Allentown,Carter,36.2989,-82.154,1639803,35.1145,-85.6472,212.37967822738446
109,Allentown,Carter,,,30173.0,1647797.0,Balltown,McMinn,Populated Place,72.35294117647058,FUZZY_GENERAL,"Fuzzy match (score: 82.35294117647058), different county",Allentown,Carter,36.2989,-82.154,1647797,35.4345,-84.5872,148.7586147189713
109,Allentown,Carter,,,30173.0,1647797.0,Balltown,McMinn,Populated Place,72.35294117647058,FUZZY_GENERAL,"Fuzzy match (score: 82.35294117647058), different county",Allentown,Carter,36.2989,-82.154,1647797,35.4345,-84.5872,148.7586147189713
109,Allentown,Carter,,,30970.0,1315181.0,Halltown,Trousdale,Populated Place,72.35294117647058,FUZZY_GENERAL,"Fuzzy match (score: 82.35294117647058), different county",Allentown,Carter,36.2989,-82.154,1315181,36.3845,-86.1472,222.31601173416783
109,Allentown,Carter,,,30970.0,1315181.0,Halltown,Trousdale,Populated Place,72.35294117647058,FUZZY_GENERAL,"Fuzzy match (score: 82.35294117647058), different county",Allentown,Carter,36.2989,-82.154,1315181,36.3845,-86.1472,222.31601173416783
116,Allington,Roane,,,27898.0,1275854.0,Arlington,Knox,Populated Place,78.88888888888889,FUZZY_GENERAL,"Fuzzy match (score: 88.88888888888889), different county",Allington,Roane,35.8645,-84.5372,1275854,36.0045,-83.9372,34.93450313770465
116,Allington,Roane,,,29343.0,1304869.0,Arlington,Shelby,Populated Place,78.88888888888889,FUZZY_GENERAL,"Fuzzy match (score: 88.88888888888889), different county",Allington,Roane,35.8645,-84.5372,1304869,35.1345,-89.9372,307.887218246981
116,Allington,Roane,,,32063.0,1309075.0,Arlington,Houston,Populated Place,78.88888888888889,FUZZY_GENERAL,"Fuzzy match (score: 88.88888888888889), different county",Allington,Roane,35.8645,-84.5372,1309075,36.2945,-87.6972,178.94438955345376
124,Almira,Tipton,,1903.0,29617.0,1311537.0,Palmyra,Montgomery,Populated Place,70.0,FUZZY_GENERAL,"Fuzzy match (score: 76.92307692307692), different county",Almira,Tipton,35.4945,-89.7972,1311537,36.4945,-87.3472,153.4024090776221
124,Almira,Tipton,,1903.0,30289.0,1276249.0,Balmoral,Hamilton,Populated Place,70.0,FUZZY_GENERAL,"Fuzzy match (score: 71.42857142857143), different county",Almira,Tipton,35.4945,-89.7972,1276249,35.1245,-85.2972,255.0012688172306
127,Aloha,Shelby,,1894.0,28056.0,1314259.0,Alpha,Hamblen,Populated Place,70.0,FUZZY_GENERAL,"Fuzzy match (score: 80.0), different county",Aloha,Shelby,35.1345,-89.9372,1314259,36.2145,-83.2972,380.0236046556267
127,Aloha,Shelby,,1894.0,30491.0,1304784.0,Alcoa,Blount,Populated Place,70.0,FUZZY_GENERAL,"Fuzzy match (score: 80.0), different county",Aloha,Shelby,35.1345,-89.9372,1304784,35.6856,-83.9207,340.9051327997942
127,Aloha,Shelby,,1894.0,33190.0,1311938.0,Lohman,Sumner,Populated Place,70.0,FUZZY_GENERAL,"Fuzzy match (score: 72.72727272727273), different county",Aloha,Shelby,35.1345,-89.9372,1311938,36.4645,-86.4672,215.0707111552082
140,Altons,Benton,1837.0,,648.0,1313499.0,Walton (historical),Davidson,Populated Place,73.33333333333334,FUZZY_GENERAL,"Fuzzy match (score: 83.33333333333334), different county",Altons,Benton,36.0773,-88.0589,1313499,36.1667,-86.7844,71.40278249594857
140,Altons,Benton,1837.0,,30537.0,1275624.0,Allons,Overton,Populated Place,73.33333333333334,FUZZY_GENERAL,"Fuzzy match (score: 83.33333333333334), different county",Altons,Benton,36.0773,-88.0589,1275624,36.3345,-85.2972,154.9947550678175
145,Alva,Loudon,,1901.0,1032.0,1640776.0,Elva (historical),Scott,Populated Place,70.0,FUZZY_GENERAL,"Fuzzy match (score: 75.0), different county",Alva,Loudon,35.7345,-84.3372,1640776,36.4745,-84.5872,53.00270372910583
145,Alva,Loudon,,1901.0,33028.0,1647225.0,Calvary,Dyer,Populated Place,70.0,FUZZY_GENERAL,"Fuzzy match (score: 72.72727272727273), different county",Alva,Loudon,35.7345,-84.3372,1647225,36.0745,-89.3972,284.14197034333586
147,Alvis,Hawkins,,1903.0,27821.0,1314933.0,Davis,Loudon,Populated Place,70.0,FUZZY_GENERAL,"Fuzzy match (score: 80.0), different county",Alvis,Hawkins,36.4345,-82.9472,1314933,35.7345,-84.3372,91.45457310012382
147,Alvis,Hawkins,,1903.0,29664.0,1313494.0,Travis,Davidson,Populated Place,70.0,FUZZY_GENERAL,"Fuzzy match (score: 72.72727272727273), different county",Alvis,Hawkins,36.4345,-82.9472,1313494,36.1667,-86.7844,214.468449459049
148,Amanda,White,1881.0,1904.0,801.0,1310298.0,Miranda (historical),Overton,Populated Place,70.0,FUZZY_GENERAL,"Fuzzy match (score: 76.92307692307692), different county",Amanda,White,35.9245,-85.4672,1310298,36.3345,-85.2972,29.87644971995557
148,Amanda,White,1881.0,1904.0,29745.0,1314598.0,Arminda,Knox,Populated Place,70.0,FUZZY_GENERAL,"Fuzzy match (score: 76.92307692307692), different county",Amanda,White,35.9245,-85.4672,1314598,36.0045,-83.9372,85.74467434049083
154,Ames Plantation,Fayette,,,34175.0,1297779.0,Plantation Hills,Knox,Populated Place,70.0,FUZZY_GENERAL,"Fuzzy match (score: 77.41935483870968), different county",Ames Plantation,Fayette,35.2145,-89.4472,1297779,36.0045,-83.9372,314.2636922716974
154,Ames Plantation,Fayette,,,28764.0,1312934.0,Carnton Plantation,Williamson,Populated Place,70.0,FUZZY_GENERAL,"Fuzzy match (score: 72.72727272727273), different county",Ames Plantation,Fayette,35.2145,-89.4472,1312934,35.8745,-86.8672,152.04752724183507
162,Ammonia,Shelby,,1859.0,29507.0,1275857.0,Armona,Blount,Populated Place,70.0,FUZZY_GENERAL,"Fuzzy match (score: 76.92307692307692), different county",Ammonia,Shelby,35.1345,-89.9372,1275857,35.6856,-83.9207,340.9051327997942
162,Ammonia,Shelby,,1859.0,33948.0,1294158.0,Mona,Rutherford,Populated Place,70.0,FUZZY_GENERAL,"Fuzzy match (score: 72.72727272727273), different county",Ammonia,Shelby,35.1345,-89.9372,1294158,35.8445,-86.3972,205.10296616356078
162,Ammonia,Shelby,,1859.0,33118.0,1290442.0,Laconia,Fayette,Populated Place,70.0,FUZZY_GENERAL,"Fuzzy match (score: 71.42857142857143), different county",Ammonia,Shelby,35.1345,-89.9372,1290442,35.2145,-89.4472,28.22204754779219
164,Amo,Overton,,1904.0,330.0,1310508.0,Ambro (historical),Grainger,Populated Place,70.0,FUZZY_GENERAL,"Fuzzy match (score: 75.0), different county",Amo,Overton,36.3345,-85.2972,1310508,36.2845,-83.4972,100.28372263152984
164,Amo,Overton,,1904.0,27724.0,1304782.0,Alamo,Crockett,Populated Place,70.0,FUZZY_GENERAL,"Fuzzy match (score: 75.0), different county",Amo,Overton,36.3345,-85.2972,1304782,35.8345,-89.0972,214.97550761166502
164,Amo,Overton,,1904.0,27818.0,1314928.0,Damon,Hardin,Populated Place,70.0,FUZZY_GENERAL,"Fuzzy match (score: 75.0), different county",Amo,Overton,36.3345,-85.2972,1314928,35.1845,-88.2472,183.49447982920577
166,Ample,Roane,,1904.0,1460.0,1310539.0,Maples (historical),Grainger,Populated Place,70.0,FUZZY_GENERAL,"Fuzzy match (score: 72.72727272727273), different county",Ample,Roane,35.8645,-84.5372,1310539,36.2845,-83.4972,64.92832663349274
166,Ample,Roane,,1904.0,31352.0,1315462.0,Maples,Anderson,Populated Place,70.0,FUZZY_GENERAL,"Fuzzy match (score: 72.72727272727273), different county",Ample,Roane,35.8645,-84.5372,1315462,36.1034,-84.1888,25.533505278889315
166,Ample,Roane,,1904.0,32084.0,1315182.0,Hamble,Dickson,Populated Place,70.0,FUZZY_GENERAL,"Fuzzy match (score: 72.72727272727273), different county",Ample,Roane,35.8645,-84.5372,1315182,36.1345,-87.3972,160.9569756688545
178,Andersons,Wilson,,1834.0,29482.0,1314584.0,Anderson,Sullivan,Populated Place,84.11764705882352,FUZZY_GENERAL,"Fuzzy match (score: 94.11764705882352), different county",Andersons,Wilson,36.1745,-86.2972,1314584,36.5145,-82.2872,224.39653464881178
178,Andersons,Wilson,,1834.0,30643.0,1275675.0,Anderson,Coffee,Populated Place,84.11764705882352,FUZZY_GENERAL,"Fuzzy match (score: 94.11764705882352), different county",Andersons,Wilson,36.1745,-86.2972,1275675,35.4845,-86.0972,48.976132955441926
178,Andersons,Wilson,,1834.0,30773.0,1314583.0,Anderson,Franklin,Populated Place,84.11764705882352,FUZZY_GENERAL,"Fuzzy match (score: 94.11764705882352), different county",Andersons,Wilson,36.1745,-86.2972,1314583,35.1545,-86.0972,71.36816876407704
179,Andersons Store,McNairy,,1866.0,4682.0,1642040.0,Andersons Spring,Carter,Spring,75.0,FIRST_WORD,"First word match, different county",Andersons Store,McNairy,35.1945,-88.5472,1642040,36.2989,-82.154,366.48672978676905
179,Andersons Store,McNairy,,1866.0,4829.0,1643065.0,Andersons Shoals,Cocke,Bar,75.0,FIRST_WORD,"First word match, different county",Andersons Store,McNairy,35.1945,-88.5472,1643065,35.9345,-83.134,308.48971970920235
179,Andersons Store,McNairy,,1866.0,4829.0,1643065.0,Andersons Shoals,Cocke,Bar,75.0,FIRST_WORD,"First word match, different county",Andersons Store,McNairy,35.1945,-88.5472,1643065,36.2145,-83.2972,302.846913387958
179,Andersons Store,McNairy,,1866.0,4830.0,1643065.0,Andersons Shoals,Hamblen,Bar,75.0,FIRST_WORD,"First word match, different county",Andersons Store,McNairy,35.1945,-88.5472,1643065,35.9345,-83.134,308.48971970920235
179,Andersons Store,McNairy,,1866.0,4830.0,1643065.0,Andersons Shoals,Hamblen,Bar,75.0,FIRST_WORD,"First word match, different county",Andersons Store,McNairy,35.1945,-88.5472,1643065,36.2145,-83.2972,302.846913387958
182,Andrews,Maury,,1902.0,2335.0,1275749.0,Andrews Spring,Marshall,Spring,80.0,NAME_VARIATION,Name variation: andrews spring,Andrews,Maury,35.6145,-87.0472,1275749,35.4545,-86.7972,17.883907919132206
182,Andrews,Maury,,1902.0,16265.0,1304840.0,Andrews Creek,Cannon,Stream,80.0,NAME_VARIATION,Name variation: andrews creek,Andrews,Maury,35.6145,-87.0472,1304840,35.8095,-86.0583,57.09418886017429
182,Andrews,Maury,,1902.0,16265.0,1304840.0,Andrews Creek,Cannon,Stream,80.0,NAME_VARIATION,Name variation: andrews creek,Andrews,Maury,35.6145,-87.0472,1304840,35.8445,-86.3972,39.772966987383505
182,Andrews,Maury,,1902.0,16266.0,1304840.0,Andrews Creek,Rutherford,Stream,80.0,NAME_VARIATION,Name variation: andrews creek,Andrews,Maury,35.6145,-87.0472,1304840,35.8095,-86.0583,57.09418886017429
182,Andrews,Maury,,1902.0,16266.0,1304840.0,Andrews Creek,Rutherford,Stream,80.0,NAME_VARIATION,Name variation: andrews creek,Andrews,Maury,35.6145,-87.0472,1304840,35.8445,-86.3972,39.772966987383505
183,Andrews Chapel,Madison,1849.0,1903.0,16265.0,1304840.0,Andrews Creek,Cannon,Stream,75.0,FIRST_WORD,"First word match, different county",Andrews Chapel,Madison,35.6145,-88.8972,1304840,35.8095,-86.0583,159.8384281022093
183,Andrews Chapel,Madison,1849.0,1903.0,16265.0,1304840.0,Andrews Creek,Cannon,Stream,75.0,FIRST_WORD,"First word match, different county",Andrews Chapel,Madison,35.6145,-88.8972,1304840,35.8445,-86.3972,141.12427696821166
183,Andrews Chapel,Madison,1849.0,1903.0,16266.0,1304840.0,Andrews Creek,Rutherford,Stream,75.0,FIRST_WORD,"First word match, different county",Andrews Chapel,Madison,35.6145,-88.8972,1304840,35.8095,-86.0583,159.8384281022093
183,Andrews Chapel,Madison,1849.0,1903.0,16266.0,1304840.0,Andrews Creek,Rutherford,Stream,75.0,FIRST_WORD,"First word match, different county",Andrews Chapel,Madison,35.6145,-88.8972,1304840,35.8445,-86.3972,141.12427696821166
183,Andrews Chapel,Madison,1849.0,1903.0,26790.0,1275747.0,Andrews Hollow,Stewart,Valley,75.0,FIRST_WORD,"First word match, different county",Andrews Chapel,Madison,35.6145,-88.8972,1275747,36.5045,-87.8472,84.98053118663186
184,Andrews Chapel,McMinn,,,16265.0,1304840.0,Andrews Creek,Cannon,Stream,75.0,FIRST_WORD,"First word match, different county",Andrews Chapel,McMinn,35.4345,-84.5872,1304840,35.8095,-86.0583,86.5950035117342
184,Andrews Chapel,McMinn,,,16265.0,1304840.0,Andrews Creek,Cannon,Stream,75.0,FIRST_WORD,"First word match, different county",Andrews Chapel,McMinn,35.4345,-84.5872,1304840,35.8445,-86.3972,105.51393973829374
184,Andrews Chapel,McMinn,,,16265.0,1304840.0,Andrews Creek,Cannon,Stream,75.0,FIRST_WORD,"First word match, different county",Andrews Chapel,McMinn,35.4345,-84.5872,1304840,35.8095,-86.0583,86.5950035117342
184,Andrews Chapel,McMinn,,,16265.0,1304840.0,Andrews Creek,Cannon,Stream,75.0,FIRST_WORD,"First word match, different county",Andrews Chapel,McMinn,35.4345,-84.5872,1304840,35.8445,-86.3972,105.51393973829374
184,Andrews Chapel,McMinn,,,16266.0,1304840.0,Andrews Creek,Rutherford,Stream,75.0,FIRST_WORD,"First word match, different county",Andrews Chapel,McMinn,35.4345,-84.5872,1304840,35.8095,-86.0583,86.5950035117342
184,Andrews Chapel,McMinn,,,16266.0,1304840.0,Andrews Creek,Rutherford,Stream,75.0,FIRST_WORD,"First word match, different county",Andrews Chapel,McMinn,35.4345,-84.5872,1304840,35.8445,-86.3972,105.51393973829374
184,Andrews Chapel,McMinn,,,16266.0,1304840.0,Andrews Creek,Rutherford,Stream,75.0,FIRST_WORD,"First word match, different county",Andrews Chapel,McMinn,35.4345,-84.5872,1304840,35.8095,-86.0583,86.5950035117342
184,Andrews Chapel,McMinn,,,16266.0,1304840.0,Andrews Creek,Rutherford,Stream,75.0,FIRST_WORD,"First word match, different county",Andrews Chapel,McMinn,35.4345,-84.5872,1304840,35.8445,-86.3972,105.51393973829374
184,Andrews Chapel,McMinn,,,26790.0,1275747.0,Andrews Hollow,Stewart,Valley,75.0,FIRST_WORD,"First word match, different county",Andrews Chapel,McMinn,35.4345,-84.5872,1275747,36.5045,-87.8472,196.71542479677473
184,Andrews Chapel,McMinn,,,26790.0,1275747.0,Andrews Hollow,Stewart,Valley,75.0,FIRST_WORD,"First word match, different county",Andrews Chapel,McMinn,35.4345,-84.5872,1275747,36.5045,-87.8472,196.71542479677473
185,Andrews (Stand),Maury,,,2335.0,1275749.0,Andrews Spring,Marshall,Spring,80.0,NAME_VARIATION,Name variation: andrews spring,Andrews (Stand),Maury,35.6145,-87.0472,1275749,35.4545,-86.7972,17.883907919132206
185,Andrews (Stand),Maury,,,16265.0,1304840.0,Andrews Creek,Cannon,Stream,80.0,NAME_VARIATION,Name variation: andrews creek,Andrews (Stand),Maury,35.6145,-87.0472,1304840,35.8095,-86.0583,57.09418886017429
185,Andrews (Stand),Maury,,,16265.0,1304840.0,Andrews Creek,Cannon,Stream,80.0,NAME_VARIATION,Name variation: andrews creek,Andrews (Stand),Maury,35.6145,-87.0472,1304840,35.8445,-86.3972,39.772966987383505
185,Andrews (Stand),Maury,,,16266.0,1304840.0,Andrews Creek,Rutherford,Stream,80.0,NAME_VARIATION,Name variation: andrews creek,Andrews (Stand),Maury,35.6145,-87.0472,1304840,35.8095,-86.0583,57.09418886017429
185,Andrews (Stand),Maury,,,16266.0,1304840.0,Andrews Creek,Rutherford,Stream,80.0,NAME_VARIATION,Name variation: andrews creek,Andrews (Stand),Maury,35.6145,-87.0472,1304840,35.8445,-86.3972,39.772966987383505
186,Andy,Perry,,1904.0,13585.0,1327461.0,Andy Creek,Pickett,Stream,80.0,NAME_VARIATION,Name variation: andy creek,Andy,Perry,35.6345,-87.8472,1327461,36.5645,-85.0472,169.0088713471199
186,Andy,Perry,,1904.0,7115.0,1275751.0,Andy Branch,Anderson,Stream,80.0,NAME_VARIATION,Name variation: andy branch,Andy,Perry,35.6345,-87.8472,1275751,36.1034,-84.1888,207.38116142008462
186,Andy,Perry,,1904.0,8197.0,1275750.0,Andy Branch,Johnson,Stream,80.0,NAME_VARIATION,Name variation: andy branch,Andy,Perry,35.6345,-87.8472,1275750,36.4545,-81.8472,339.9124788998584
189,Angle(town),Sumner,1893.0,,33040.0,1314780.0,Cagle,Sequatchie,Populated Place,70.0,FUZZY_GENERAL,"Fuzzy match (score: 80.0), different county",Angle(town),Sumner,36.4645,-86.4672,1314780,35.4045,-85.3872,94.94879190610844
189,Angle(town),Sumner,1893.0,,33494.0,1640255.0,Range,Carter,Populated Place,70.0,FUZZY_GENERAL,"Fuzzy match (score: 80.0), different county",Angle(town),Sumner,36.4645,-86.4672,1640255,36.2989,-82.154,240.19289607078255
190,Angleton,Washington,,1886.0,29136.0,1304841.0,Angeltown,Sumner,Populated Place,72.35294117647058,FUZZY_GENERAL,"Fuzzy match (score: 82.35294117647058), different county",Angleton,Washington,36.2945,-82.5072,1304841,36.4645,-86.4672,220.59563333148952
190,Angleton,Washington,,1886.0,32048.0,1314298.0,Singleton,Bedford,Populated Place,72.35294117647058,FUZZY_GENERAL,"Fuzzy match (score: 82.35294117647058), different county",Angleton,Washington,36.2945,-82.5072,1314298,35.5045,-86.4714,228.48210565673563
190,Angleton,Washington,,1886.0,34014.0,1303636.0,Singleton,Blount,Populated Place,72.35294117647058,FUZZY_GENERAL,"Fuzzy match (score: 82.35294117647058), different county",Angleton,Washington,36.2945,-82.5072,1303636,35.6856,-83.9207,89.52687048320992
192,Ann Boor,Maury,,1823.0,21263.0,1275761.0,Ann Homer,Perry,Ridge,75.0,FIRST_WORD,"First word match, different county",Ann Boor,Maury,35.6145,-87.0472,1275761,35.6345,-87.8472,44.953997557985424
192,Ann Boor,Maury,,1823.0,21263.0,1275761.0,Ann Homer,Perry,Ridge,75.0,FIRST_WORD,"First word match, different county",Ann Boor,Maury,35.6145,-87.0472,1275761,35.3145,-87.7472,44.51557752241845
192,Ann Boor,Maury,,1823.0,21264.0,1275761.0,Ann Homer,Wayne,Ridge,75.0,FIRST_WORD,"First word match, different county",Ann Boor,Maury,35.6145,-87.0472,1275761,35.6345,-87.8472,44.953997557985424
192,Ann Boor,Maury,,1823.0,21264.0,1275761.0,Ann Homer,Wayne,Ridge,75.0,FIRST_WORD,"First word match, different county",Ann Boor,Maury,35.6145,-87.0472,1275761,35.3145,-87.7472,44.51557752241845
196,Annsville,Madison,,,947.0,1311768.0,Carnsville (historical),Carroll,Populated Place,74.21052631578947,FUZZY_GENERAL,"Fuzzy match (score: 84.21052631578947), different county",Annsville,Madison,35.6145,-88.8972,1311768,35.9795,-88.5972,30.311175495151527
196,Annsville,Madison,,,33600.0,1283916.0,Evansville,Dyer,Populated Place,74.21052631578947,FUZZY_GENERAL,"Fuzzy match (score: 84.21052631578947), different county",Annsville,Madison,35.6145,-88.8972,1283916,36.0745,-89.3972,42.36246767259208
196,Annsville,Madison,,,33820.0,1279296.0,Cainsville,Wilson,Populated Place,74.21052631578947,FUZZY_GENERAL,"Fuzzy match (score: 84.21052631578947), different county",Annsville,Madison,35.6145,-88.8972,1279296,36.1745,-86.2972,150.5876557390528
198,Anthem,Overton,,1905.0,1780.0,1307730.0,Panther (historical),Anderson,Populated Place,70.0,FUZZY_GENERAL,"Fuzzy match (score: 76.92307692307692), different county",Anthem,Overton,36.3345,-85.2972,1307730,36.1034,-84.1888,63.81796821606348
198,Anthem,Overton,,1905.0,23962.0,1272428.0,The Pan,Marion,Area,70.0,FUZZY_GENERAL,"Fuzzy match (score: 76.92307692307692), different county",Anthem,Overton,36.3345,-85.2972,1272428,35.1145,-85.6472,86.55499928165982
198,Anthem,Overton,,1905.0,32632.0,1282036.0,Dante,Knox,Populated Place,70.0,FUZZY_GENERAL,"Fuzzy match (score: 72.72727272727273), different county",Anthem,Overton,36.3345,-85.2972,1282036,36.0045,-83.9372,79.21373282091272
202,Antioch,Crockett,,,881.0,1313297.0,Antioch (historical),Dickson,Populated Place,90.0,FUZZY_GENERAL,"Fuzzy match (score: 100.0), different county",Antioch,Crockett,35.8345,-89.0972,1313297,36.1345,-87.3972,97.28326418220242
202,Antioch,Crockett,,,28747.0,1275782.0,Antioch,Bedford,Populated Place,90.0,FUZZY_GENERAL,"Fuzzy match (score: 100.0), different county",Antioch,Crockett,35.8345,-89.0972,1275782,35.5045,-86.4714,149.14633851987898
202,Antioch,Crockett,,,28894.0,1309511.0,Antioch,Loudon,Populated Place,90.0,FUZZY_GENERAL,"Fuzzy match (score: 100.0), different county",Antioch,Crockett,35.8345,-89.0972,1309511,35.7345,-84.3372,266.87771435404295
206,Antioch,Gibson,,1874.0,881.0,1313297.0,Antioch (historical),Dickson,Populated Place,90.0,FUZZY_GENERAL,"Fuzzy match (score: 100.0), different county",Antioch,Gibson,36.0345,-88.8972,1313297,36.1345,-87.3972,84.04540774264234
206,Antioch,Gibson,,1874.0,28747.0,1275782.0,Antioch,Bedford,Populated Place,90.0,FUZZY_GENERAL,"Fuzzy match (score: 100.0), different county",Antioch,Gibson,36.0345,-88.8972,1275782,35.5045,-86.4714,140.84005894929143
206,Antioch,Gibson,,1874.0,28894.0,1309511.0,Antioch,Loudon,Populated Place,90.0,FUZZY_GENERAL,"Fuzzy match (score: 100.0), different county",Antioch,Gibson,36.0345,-88.8972,1309511,35.7345,-84.3372,256.09834586046145
212,Antioch,Marion,,,881.0,1313297.0,Antioch (historical),Dickson,Populated Place,90.0,FUZZY_GENERAL,"Fuzzy match (score: 100.0), different county",Antioch,Marion,35.1145,-85.6472,1313297,36.1345,-87.3972,120.94427167815775
212,Antioch,Marion,,,28747.0,1275782.0,Antioch,Bedford,Populated Place,90.0,FUZZY_GENERAL,"Fuzzy match (score: 100.0), different county",Antioch,Marion,35.1145,-85.6472,1275782,35.5045,-86.4714,53.72127541893894
212,Antioch,Marion,,,28894.0,1309511.0,Antioch,Loudon,Populated Place,90.0,FUZZY_GENERAL,"Fuzzy match (score: 100.0), different county",Antioch,Marion,35.1145,-85.6472,1309511,35.7345,-84.3372,85.29833805701024
225,Bald Hill,Roane,,,630.0,1310682.0,Bald Hill (historical),Claiborne,Populated Place,90.0,FUZZY_GENERAL,"Fuzzy match (score: 100.0), different county",Bald Hill,Roane,35.8645,-84.5372,1310682,36.4945,-83.6972,63.951738495187655
225,Bald Hill,Roane,,,21843.0,1276206.0,Bald Hill,Sullivan,Summit,90.0,FUZZY_GENERAL,"Fuzzy match (score: 100.0), different county",Bald Hill,Roane,35.8645,-84.5372,1276206,36.5145,-82.2872,133.26644264100943
225,Bald Hill,Roane,,,26682.0,1276205.0,Bald Hill,Washington,Summit,90.0,FUZZY_GENERAL,"Fuzzy match (score: 100.0), different county",Bald Hill,Roane,35.8645,-84.5372,1276205,36.2945,-82.5072,117.1910760208099
226,Bald Hornet,Montgomery,,,20493.0,1276216.0,Bald Point,Franklin,Summit,75.0,FIRST_WORD,"First word match, different county",Bald Hornet,Montgomery,36.4945,-87.3472,1276216,35.1545,-86.0972,116.08975776677264
226,Bald Hornet,Montgomery,,,29782.0,1314621.0,Bald Point,Grainger,Populated Place,75.0,FIRST_WORD,"First word match, different county",Bald Hornet,Montgomery,36.4945,-87.3472,1314621,36.2845,-83.4972,214.62793697854005
226,Bald Hornet,Montgomery,,,0.0,1308776.0,Bald Island (historical),Stewart,Island,75.0,FIRST_WORD,"First word match, different county",Bald Hornet,Montgomery,36.4945,-87.3472,1308776,36.5045,-87.8472,27.781026356381158
231,Ballards,Sevier,,1901.0,31584.0,1269300.0,Allardt,Fentress,Populated Place,70.0,FUZZY_GENERAL,"Fuzzy match (score: 80.0), different county",Ballards,Sevier,35.7745,-83.5372,1269300,36.3845,-84.9472,89.3111100802731
231,Ballards,Sevier,,1901.0,2351.0,1276244.0,Ballard Slough,Tipton,Lake,70.0,FUZZY_GENERAL,"Fuzzy match (score: 72.72727272727273), different county",Ballards,Sevier,35.7745,-83.5372,1276244,35.4945,-89.7972,352.027547825246
231,Ballards,Sevier,,1901.0,729.0,1645146.0,Dallas (historical),Hamilton,Populated Place,70.0,FUZZY_GENERAL,"Fuzzy match (score: 71.42857142857143), different county",Ballards,Sevier,35.7745,-83.5372,1645146,35.1245,-85.2972,108.7713342813843
238,Banard,Roane,,,821.0,1311584.0,Tanyard (historical),Fayette,Populated Place,70.0,FUZZY_GENERAL,"Fuzzy match (score: 76.92307692307692), different county",Banard,Roane,35.8645,-84.5372,1311584,35.2145,-89.4472,279.6661151175457
238,Banard,Roane,,,32011.0,1647520.0,Anark,Carroll,Populated Place,70.0,FUZZY_GENERAL,"Fuzzy match (score: 72.72727272727273), different county",Banard,Roane,35.8645,-84.5372,1647520,35.9795,-88.5972,227.30529316142537
238,Banard,Roane,,,28021.0,1278215.0,Brainerd,Hamilton,Populated Place,70.0,FUZZY_GENERAL,"Fuzzy match (score: 71.42857142857143), different county",Banard,Roane,35.8645,-84.5372,1278215,35.1245,-85.2972,66.65181749303382
242,Bandy,Sumner,,1903.0,11663.0,1276260.0,Bandy Creek,Scott,Stream,80.0,NAME_VARIATION,Name variation: bandy creek,Bandy,Sumner,36.4645,-86.4672,1276260,36.4745,-84.5872,104.46553431860225
242,Bandy,Sumner,,1903.0,11663.0,1276260.0,Bandy Creek,Scott,Stream,80.0,NAME_VARIATION,Name variation: bandy creek,Bandy,Sumner,36.4645,-86.4672,1276260,36.3845,-84.9472,84.68969654383545
242,Bandy,Sumner,,1903.0,11664.0,1276260.0,Bandy Creek,Fentress,Stream,80.0,NAME_VARIATION,Name variation: bandy creek,Bandy,Sumner,36.4645,-86.4672,1276260,36.4745,-84.5872,104.46553431860225
242,Bandy,Sumner,,1903.0,11664.0,1276260.0,Bandy Creek,Fentress,Stream,80.0,NAME_VARIATION,Name variation: bandy creek,Bandy,Sumner,36.4645,-86.4672,1276260,36.3845,-84.9472,84.68969654383545
245,Bankston,Meigs,,1908.0,734.0,1643502.0,Blanton (historical),Cannon,Populated Place,70.0,FUZZY_GENERAL,"Fuzzy match (score: 80.0), different county",Bankston,Meigs,35.4945,-84.7372,1643502,35.8095,-86.0583,77.30222440950459
245,Bankston,Meigs,,1908.0,1768.0,1645045.0,Evanston (historical),Warren,Populated Place,70.0,FUZZY_GENERAL,"Fuzzy match (score: 75.0), different county",Bankston,Meigs,35.4945,-84.7372,1645045,35.6945,-85.7872,60.593120150564154
245,Bankston,Meigs,,1908.0,32765.0,1283915.0,Evanston,Hancock,Populated Place,70.0,FUZZY_GENERAL,"Fuzzy match (score: 75.0), different county",Bankston,Meigs,35.4945,-84.7372,1283915,36.5145,-83.2472,109.10377452049882
246,Banner,Sevier,,1903.0,33745.0,1276268.0,Banner Springs,Fentress,Populated Place,80.0,NAME_VARIATION,Name variation: banner springs,Banner,Sevier,35.7745,-83.5372,1276268,36.3845,-84.9472,89.3111100802731
246,Banner,Sevier,,1903.0,28473.0,1327499.0,Banner Hill,Unicoi,Populated Place,80.0,NAME_VARIATION,Name variation: banner hill,Banner,Sevier,35.7745,-83.5372,1327499,36.1045,-82.3472,70.36947038467717
249,Bantons Ferry,Rutherford,,1840.0,1792.0,1640646.0,Barns Ferry (historical),Polk,Crossing,73.33333333333334,FUZZY_GENERAL,"Fuzzy match (score: 83.33333333333334), different county",Bantons Ferry,Rutherford,35.8445,-86.3972,1640646,35.0745,-84.5372,117.42573972795111
249,Bantons Ferry,Rutherford,,1840.0,2056.0,1304911.0,Bacon Ferry,Monroe,Crossing,73.33333333333334,FUZZY_GENERAL,"Fuzzy match (score: 83.33333333333334), different county",Bantons Ferry,Rutherford,35.8445,-86.3972,1304911,35.4445,-84.2372,124.39473867522962
250,Baptist,Rhea,,1891.0,16997.0,1276271.0,Baptist Gap,Claiborne,Gap,80.0,NAME_VARIATION,Name variation: baptist gap,Baptist,Rhea,35.6045,-84.9372,1276271,36.4945,-83.6972,92.63052830256044
250,Baptist,Rhea,,1891.0,27482.0,1276273.0,Baptist Ridge,Clay,Ridge,80.0,NAME_VARIATION,Name variation: baptist ridge,Baptist,Rhea,35.6045,-84.9372,1276273,36.5545,-85.5472,73.95495274267381
250,Baptist,Rhea,,1891.0,32019.0,1314624.0,Baptist Ridge,Clay,Populated Place,80.0,NAME_VARIATION,Name variation: baptist ridge,Baptist,Rhea,35.6045,-84.9372,1314624,36.5545,-85.5472,73.95495274267381
253,Barcheers,Giles,,1904.0,30574.0,1310501.0,Archer,Marshall,Populated Place,70.0,FUZZY_GENERAL,"Fuzzy match (score: 80.0), different county",Barcheers,Giles,35.1845,-87.0472,1310501,35.4545,-86.7972,23.3821321675929
253,Barcheers,Giles,,1904.0,33686.0,1314614.0,Bachelder,Lewis,Populated Place,70.0,FUZZY_GENERAL,"Fuzzy match (score: 77.77777777777779), different county",Barcheers,Giles,35.1845,-87.0472,1314614,35.4845,-87.4972,32.758761837730226
253,Barcheers,Giles,,1904.0,4958.0,1644675.0,Roches Bar,Decatur,Bar,70.0,FUZZY_GENERAL,"Fuzzy match (score: 73.6842105263158), different county",Barcheers,Giles,35.1845,-87.0472,1644675,35.5945,-88.1222,66.85418822006763
253,Barcheers,Giles,,1904.0,4958.0,1644675.0,Roches Bar,Decatur,Bar,70.0,FUZZY_GENERAL,"Fuzzy match (score: 73.6842105263158), different county",Barcheers,Giles,35.1845,-87.0472,1644675,35.3145,-87.7472,40.5082202643807
263,Barkis,Hawkins,,1892.0,4915.0,1644115.0,Kings Bar,Roane,Bar,70.0,FUZZY_GENERAL,"Fuzzy match (score: 80.0), different county",Barkis,Hawkins,36.4345,-82.9472,1644115,35.8645,-84.5372,97.06210932335287
263,Barkis,Hawkins,,1892.0,34140.0,1296772.0,Paris,Henry,Populated Place,70.0,FUZZY_GENERAL,"Fuzzy match (score: 72.72727272727273), different county",Barkis,Hawkins,36.4345,-82.9472,1296772,36.2945,-88.2972,297.80155323902824
264,Barley,Monroe,,1906.0,5315.0,1276320.0,Barley Branch,Rhea,Stream,80.0,NAME_VARIATION,Name variation: barley branch,Barley,Monroe,35.4445,-84.2372,1276320,35.6045,-84.9372,40.88826817510193
264,Barley,Monroe,,1906.0,5785.0,1276321.0,Barley Branch,Campbell,Stream,80.0,NAME_VARIATION,Name variation: barley branch,Barley,Monroe,35.4445,-84.2372,1276321,36.3989,-84.1513,66.12166497812522
264,Barley,Monroe,,1906.0,16105.0,1276322.0,Barley Creek,Campbell,Stream,80.0,NAME_VARIATION,Name variation: barley creek,Barley,Monroe,35.4445,-84.2372,1276322,36.3989,-84.1513,66.12166497812522
269,Barnes Store,Coffee,,,32306.0,1327502.0,Barnes,Washington,Populated Place,80.0,NAME_VARIATION,Name variation: barnes,Barnes Store,Coffee,35.4845,-86.0972,1327502,36.2945,-82.5072,208.5989826414039
269,Barnes Store,Coffee,,,33383.0,1276340.0,Barnes,Pickett,Populated Place,80.0,NAME_VARIATION,Name variation: barnes,Barnes Store,Coffee,35.4845,-86.0972,1276340,36.5645,-85.0472,94.93024945933998
290,Bartheny,Union,,1902.0,28935.0,1304889.0,Athens,McMinn,Populated Place,70.0,FUZZY_GENERAL,"Fuzzy match (score: 71.42857142857143), different county",Bartheny,Union,36.2645,-83.8872,1304889,35.4345,-84.5872,69.47027325019639
290,Bartheny,Union,,1902.0,31592.0,1314635.0,Batley,Anderson,Populated Place,70.0,FUZZY_GENERAL,"Fuzzy match (score: 71.42857142857143), different county",Bartheny,Union,36.2645,-83.8872,1314635,36.1034,-84.1888,20.170198917240718
290,Bartheny,Union,,1902.0,28054.0,1314630.0,Barthelia,Trousdale,Populated Place,70.0,FUZZY_GENERAL,"Fuzzy match (score: 70.58823529411764), different county",Bartheny,Union,36.2645,-83.8872,1314630,36.3845,-86.1472,126.08467127087243
294,Bartlets Station,Blount,,,30499.0,1290982.0,Lees Station,Bledsoe,Populated Place,70.0,FUZZY_GENERAL,"Fuzzy match (score: 78.57142857142857), different county",Bartlets Station,Blount,35.6856,-83.9207,1290982,35.5673,-85.2389,74.4856420614184
294,Bartlets Station,Blount,,,27866.0,1278757.0,Bryant Station,Maury,Populated Place,70.0,FUZZY_GENERAL,"Fuzzy match (score: 73.33333333333334), different county",Bartlets Station,Blount,35.6856,-83.9207,1278757,35.6145,-87.0472,175.6084689381041
294,Bartlets Station,Blount,,,31030.0,1327570.0,Benton Station,Polk,Populated Place,70.0,FUZZY_GENERAL,"Fuzzy match (score: 73.33333333333334), different county",Bartlets Station,Blount,35.6856,-83.9207,1327570,35.0745,-84.5372,54.67422577293064
299,Baryville,Decatur,,,27672.0,1292868.0,Maryville,Blount,Populated Place,78.88888888888889,FUZZY_GENERAL,"Fuzzy match (score: 88.88888888888889), different county",Baryville,Decatur,35.5945,-88.1222,1292868,35.6856,-83.9207,236.00188949596057
299,Baryville,Decatur,,,29945.0,1279837.0,Caryville,Campbell,Populated Place,78.88888888888889,FUZZY_GENERAL,"Fuzzy match (score: 88.88888888888889), different county",Baryville,Decatur,35.5945,-88.1222,1279837,36.3989,-84.1513,228.82026311868628
300,Bashors Mill,Washington,,1899.0,29251.0,1314582.0,Anchor Mill,Bedford,Populated Place,70.0,FUZZY_GENERAL,"Fuzzy match (score: 78.26086956521739), different county",Bashors Mill,Washington,36.2945,-82.5072,1314582,35.5045,-86.4714,228.48210565673563
300,Bashors Mill,Washington,,1899.0,30122.0,1304920.0,Bairds Mill,Wilson,Populated Place,70.0,FUZZY_GENERAL,"Fuzzy match (score: 78.26086956521739), different county",Bashors Mill,Washington,36.2945,-82.5072,1304920,36.1745,-86.2972,211.38260228259034
300,Bashors Mill,Washington,,1899.0,31929.0,1314612.0,Babbs Mill,Greene,Populated Place,70.0,FUZZY_GENERAL,"Fuzzy match (score: 72.72727272727273), different county",Bashors Mill,Washington,36.2945,-82.5072,1314612,36.1545,-82.8472,21.278206264202122
306,Bass Landing,Lake,,1879.0,2359.0,1276430.0,Bass Bay,Benton,Bay,75.0,FIRST_WORD,"First word match, different county",Bass Landing,Lake,36.3345,-89.4972,1276430,36.0773,-88.0589,82.1369183505746
306,Bass Landing,Lake,,1879.0,15014.0,1276431.0,Bass Branch,Giles,Stream,75.0,FIRST_WORD,"First word match, different county",Bass Landing,Lake,36.3345,-89.4972,1276431,35.1845,-87.0472,158.69252720024159
306,Bass Landing,Lake,,1879.0,27348.0,1276437.0,Bass Hollow,Stewart,Valley,75.0,FIRST_WORD,"First word match, different county",Bass Landing,Lake,36.3345,-89.4972,1276437,36.5045,-87.8472,92.49147334780328
310,Bates Branch,Greene,,1847.0,5551.0,1276459.0,Bates Branch,Decatur,Stream,90.0,FUZZY_GENERAL,"Fuzzy match (score: 100.0), different county",Bates Branch,Greene,36.1545,-82.8472,1276459,35.5945,-88.1222,297.8324345271288
310,Bates Branch,Greene,,1847.0,7308.0,1276460.0,Bates Branch,Putnam,Stream,90.0,FUZZY_GENERAL,"Fuzzy match (score: 100.0), different county",Bates Branch,Greene,36.1545,-82.8472,1276460,36.1345,-85.4972,147.8679297847402
310,Bates Branch,Greene,,1847.0,14013.0,1276461.0,Bates Branch,Sumner,Stream,90.0,FUZZY_GENERAL,"Fuzzy match (score: 100.0), different county",Bates Branch,Greene,36.1545,-82.8472,1276461,36.4645,-86.4672,202.68754527579696
313,Bateville,Clay,,1906.0,28313.0,1276198.0,Bakerville,Humphreys,Populated Place,74.21052631578947,FUZZY_GENERAL,"Fuzzy match (score: 84.21052631578947), different county",Bateville,Clay,36.5545,-85.5472,1276198,36.0145,-87.6972,125.42724107668538
313,Bateville,Clay,,1906.0,28962.0,1273902.0,Waterville,Bradley,Populated Place,74.21052631578947,FUZZY_GENERAL,"Fuzzy match (score: 84.21052631578947), different county",Bateville,Clay,36.5545,-85.5472,1273902,35.159,-84.8766,103.4800730622074
313,Bateville,Clay,,1906.0,30152.0,1314693.0,Blakeville,Lincoln,Populated Place,74.21052631578947,FUZZY_GENERAL,"Fuzzy match (score: 84.21052631578947), different county",Bateville,Clay,36.5545,-85.5472,1314693,35.0745,-86.6472,119.40005425525659
318,Baton,Robertson,,1902.0,734.0,1643502.0,Blanton (historical),Cannon,Populated Place,73.33333333333334,FUZZY_GENERAL,"Fuzzy match (score: 83.33333333333334), different county",Baton,Robertson,36.5145,-86.8672,1643502,35.8095,-86.0583,66.40220075844003
318,Baton,Robertson,,1902.0,33672.0,1314728.0,Brayton,Bledsoe,Populated Place,73.33333333333334,FUZZY_GENERAL,"Fuzzy match (score: 83.33333333333334), different county",Baton,Robertson,36.5145,-86.8672,1314728,35.5673,-85.2389,112.06987269061534
322,Batsons Store,Dickson,,,321.0,1308480.0,Lyons Store (historical),Hawkins,Populated Place,70.0,FUZZY_GENERAL,"Fuzzy match (score: 75.0), different county",Batsons Store,Dickson,36.1345,-87.3972,1308480,36.4345,-82.9472,248.70232110774907
322,Batsons Store,Dickson,,,11010.0,1647629.0,Store Branch,Gibson,Stream,70.0,FUZZY_GENERAL,"Fuzzy match (score: 72.0), different county",Batsons Store,Dickson,36.1345,-87.3972,1647629,36.0345,-88.8972,84.04540774264234
322,Batsons Store,Dickson,,,28384.0,1297025.0,Paynes Store,Trousdale,Populated Place,70.0,FUZZY_GENERAL,"Fuzzy match (score: 72.0), different county",Batsons Store,Dickson,36.1345,-87.3972,1297025,36.3845,-86.1472,71.75547179705231
325,Beaverdam Forks,Roane,,1868.0,6580.0,1305042.0,Beaverdam Creek,Dickson,Stream,75.0,FIRST_WORD,"First word match, different county",Beaverdam Forks,Roane,35.8645,-84.5372,1305042,36.1345,-87.3972,160.9569756688545
325,Beaverdam Forks,Roane,,1868.0,7797.0,1276727.0,Beaverdam Creek,Henry,Stream,75.0,FIRST_WORD,"First word match, different county",Beaverdam Forks,Roane,35.8645,-84.5372,1276727,36.2945,-88.2972,212.05363936226527
325,Beaverdam Forks,Roane,,1868.0,12006.0,1276725.0,Beaverdam Creek,Bledsoe,Stream,75.0,FIRST_WORD,"First word match, different county",Beaverdam Forks,Roane,35.8645,-84.5372,1276725,35.5673,-85.2389,44.400862131368406
334,Bayne,Henry,,1904.0,681.0,1311785.0,Haynes (historical),Union,Populated Place,70.0,FUZZY_GENERAL,"Fuzzy match (score: 72.72727272727273), different county",Bayne,Henry,36.2945,-88.2972,1311785,36.2645,-83.8872,245.6347788123883
334,Bayne,Henry,,1904.0,28482.0,1313075.0,Haynes,Rutherford,Populated Place,70.0,FUZZY_GENERAL,"Fuzzy match (score: 72.72727272727273), different county",Bayne,Henry,36.2945,-88.2972,1313075,35.8445,-86.3972,110.57779315445367
334,Bayne,Henry,,1904.0,30980.0,1269358.0,Blaine,Grainger,Populated Place,70.0,FUZZY_GENERAL,"Fuzzy match (score: 72.72727272727273), different county",Bayne,Henry,36.2945,-88.2972,1269358,36.2845,-83.4972,267.3104239518964
383,Beaverdam Forks,Tipton,,,6580.0,1305042.0,Beaverdam Creek,Dickson,Stream,75.0,FIRST_WORD,"First word match, different county",Beaverdam Forks,Tipton,35.4945,-89.7972,1305042,36.1345,-87.3972,141.5572491482797
383,Beaverdam Forks,Tipton,,,7797.0,1276727.0,Beaverdam Creek,Henry,Stream,75.0,FIRST_WORD,"First word match, different county",Beaverdam Forks,Tipton,35.4945,-89.7972,1276727,36.2945,-88.2972,100.52431238108271
383,Beaverdam Forks,Tipton,,,12006.0,1276725.0,Beaverdam Creek,Bledsoe,Stream,75.0,FIRST_WORD,"First word match, different county",Beaverdam Forks,Tipton,35.4945,-89.7972,1276725,35.5673,-85.2389,256.34774695933487
384,Beaverdam Forks,Hickman,,,12304.0,1276726.0,Beaverdam Creek,Hickman,Stream,90.0,FIRST_WORD,"First word match with suffix 'creek', same county",Beaverdam Forks,Hickman,35.8145,-87.3972,1276726,35.8145,-87.3972,0.0
384,Beaverdam Forks,Hickman,,,5108.0,1651149.0,Beaverdam Springs,Hickman,Spring,90.0,FIRST_WORD,"First word match with suffix 'springs', same county",Beaverdam Forks,Hickman,35.8145,-87.3972,1651149,35.8145,-87.3972,0.0
384,Beaverdam Forks,Hickman,,,32369.0,1314643.0,Beaverdam Springs,Hickman,Populated Place,90.0,FIRST_WORD,"First word match with suffix 'springs', same county",Beaverdam Forks,Hickman,35.8145,-87.3972,1314643,35.8145,-87.3972,0.0
392,Bedrock,Giles,,1883.0,24883.0,1276778.0,Bee Rock,Putnam,Summit,70.0,FUZZY_GENERAL,"Fuzzy match (score: 80.0), different county",Bedrock,Giles,35.1845,-87.0472,1276778,36.1345,-85.4972,108.99875615309207
392,Bedrock,Giles,,1883.0,18908.0,1291754.0,Lock Bend,Warren,Bend,70.0,FUZZY_GENERAL,"Fuzzy match (score: 75.0), different county",Bedrock,Giles,35.1845,-87.0472,1291754,35.6945,-85.7872,79.20309496483023
395,Beech,Obion,,,33166.0,1276858.0,Beech Springs,Sevier,Populated Place,80.0,NAME_VARIATION,Name variation: beech springs,Beech,Obion,36.3245,-89.1972,1276858,35.7745,-83.5372,318.42987447124193
395,Beech,Obion,,,6317.0,1276802.0,Beech Branch,Morgan,Stream,80.0,NAME_VARIATION,Name variation: beech branch,Beech,Obion,36.3245,-89.1972,1276802,36.1145,-84.6472,254.0313961428235
395,Beech,Obion,,,9448.0,1276804.0,Beech Branch,Sevier,Stream,80.0,NAME_VARIATION,Name variation: beech branch,Beech,Obion,36.3245,-89.1972,1276804,35.7745,-83.5372,318.42987447124193
396,Beech,Sumner,1757.0,1867.0,33166.0,1276858.0,Beech Springs,Sevier,Populated Place,80.0,NAME_VARIATION,Name variation: beech springs,Beech,Sumner,36.4645,-86.4672,1276858,35.7745,-83.5372,170.34130690183028
396,Beech,Sumner,1757.0,1867.0,6317.0,1276802.0,Beech Branch,Morgan,Stream,80.0,NAME_VARIATION,Name variation: beech branch,Beech,Sumner,36.4645,-86.4672,1276802,36.1145,-84.6472,104.20845190611331
396,Beech,Sumner,1757.0,1867.0,9448.0,1276804.0,Beech Branch,Sevier,Stream,80.0,NAME_VARIATION,Name variation: beech branch,Beech,Sumner,36.4645,-86.4672,1276804,35.7745,-83.5372,170.34130690183028
397,Beech Bethany,Clay,,,26691.0,1276789.0,Beech Bend,Davidson,Bend,75.0,FIRST_WORD,"First word match, different county",Beech Bethany,Clay,36.5545,-85.5472,1276789,36.1667,-86.7844,73.87360290584267
397,Beech Bethany,Clay,,,26857.0,1310570.0,Beech Bend,Decatur,Bend,75.0,FIRST_WORD,"First word match, different county",Beech Bethany,Clay,36.5545,-85.5472,1310570,35.5945,-88.1222,158.36288883012395
397,Beech Bethany,Clay,,,6317.0,1276802.0,Beech Branch,Morgan,Stream,75.0,FIRST_WORD,"First word match, different county",Beech Bethany,Clay,36.5545,-85.5472,1276802,36.1145,-84.6472,58.60010735319977
400,Beech Creek,Madison,,,5247.0,1303421.0,Beech Creek,Williamson,Stream,90.0,FUZZY_GENERAL,"Fuzzy match (score: 100.0), different county",Beech Creek,Madison,35.6145,-88.8972,1303421,35.8745,-86.8672,115.25234212330972
400,Beech Creek,Madison,,,7798.0,1276810.0,Beech Creek,Davidson,Stream,90.0,FUZZY_GENERAL,"Fuzzy match (score: 100.0), different county",Beech Creek,Madison,35.6145,-88.8972,1276810,36.1667,-86.7844,124.27061261677616
400,Beech Creek,Madison,,,7904.0,1276806.0,Beech Creek,Bedford,Stream,90.0,FUZZY_GENERAL,"Fuzzy match (score: 100.0), different county",Beech Creek,Madison,35.6145,-88.8972,1276806,35.5045,-86.4714,136.56656257746775
403,Beech Grove,Bedford,,1836.0,1703.0,1313303.0,Beech Grove (historical),Dickson,Populated Place,90.0,FUZZY_GENERAL,"Fuzzy match (score: 100.0), different county",Beech Grove,Bedford,35.5045,-86.4714,1313303,36.1345,-87.3972,67.71667441008233
403,Beech Grove,Bedford,,1836.0,27670.0,1314650.0,Beech Grove,Hawkins,Populated Place,90.0,FUZZY_GENERAL,"Fuzzy match (score: 100.0), different county",Beech Grove,Bedford,35.5045,-86.4714,1314650,36.4345,-82.9472,207.27924688277733
403,Beech Grove,Bedford,,1836.0,28413.0,1314649.0,Beech Grove,Knox,Populated Place,90.0,FUZZY_GENERAL,"Fuzzy match (score: 100.0), different county",Beech Grove,Bedford,35.5045,-86.4714,1314649,36.0045,-83.9372,146.2388743308607
408,Beech Grove,Greene,,,1703.0,1313303.0,Beech Grove (historical),Dickson,Populated Place,90.0,FUZZY_GENERAL,"Fuzzy match (score: 100.0), different county",Beech Grove,Greene,36.1545,-82.8472,1313303,36.1345,-87.3972,253.8637751207888
408,Beech Grove,Greene,,,27670.0,1314650.0,Beech Grove,Hawkins,Populated Place,90.0,FUZZY_GENERAL,"Fuzzy match (score: 100.0), different county",Beech Grove,Greene,36.1545,-82.8472,1314650,36.4345,-82.9472,20.132916958364024
408,Beech Grove,Greene,,,28413.0,1314649.0,Beech Grove,Knox,Populated Place,90.0,FUZZY_GENERAL,"Fuzzy match (score: 100.0), different county",Beech Grove,Greene,36.1545,-82.8472,1314649,36.0045,-83.9372,61.74648223378741
416,Beech Hill,Hancock,,1903.0,1426.0,1311973.0,Beech Hill (historical),Jackson,Populated Place,90.0,FUZZY_GENERAL,"Fuzzy match (score: 100.0), different county",Beech Hill,Hancock,36.5145,-83.2472,1311973,36.3545,-85.6472,133.87336891572878
416,Beech Hill,Hancock,,1903.0,29534.0,1314653.0,Beech Hill,Franklin,Populated Place,90.0,FUZZY_GENERAL,"Fuzzy match (score: 100.0), different county",Beech Hill,Hancock,36.5145,-83.2472,1314653,35.1545,-86.0972,185.2423360710503
416,Beech Hill,Hancock,,1903.0,30617.0,1276840.0,Beech Hill,Giles,Populated Place,90.0,FUZZY_GENERAL,"Fuzzy match (score: 100.0), different county",Beech Hill,Hancock,36.5145,-83.2472,1276840,35.1845,-87.0472,231.79906032677354
419,Beech Hill,Maury,,,1426.0,1311973.0,Beech Hill (historical),Jackson,Populated Place,90.0,FUZZY_GENERAL,"Fuzzy match (score: 100.0), different county",Beech Hill,Maury,35.6145,-87.0472,1311973,36.3545,-85.6472,93.49576817318302
419,Beech Hill,Maury,,,29534.0,1314653.0,Beech Hill,Franklin,Populated Place,90.0,FUZZY_GENERAL,"Fuzzy match (score: 100.0), different county",Beech Hill,Maury,35.6145,-87.0472,1314653,35.1545,-86.0972,62.24418907336875
419,Beech Hill,Maury,,,30617.0,1276840.0,Beech Hill,Giles,Populated Place,90.0,FUZZY_GENERAL,"Fuzzy match (score: 100.0), different county",Beech Hill,Maury,35.6145,-87.0472,1276840,35.1845,-87.0472,29.71196158717578
420,Beech Orchard,Bedford,,1828.0,7904.0,1276806.0,Beech Creek,Bedford,Stream,90.0,FIRST_WORD,"First word match with suffix 'creek', same county",Beech Orchard,Bedford,35.5045,-86.4714,1276806,35.5045,-86.4714,0.0
420,Beech Orchard,Bedford,,1828.0,11648.0,1276808.0,Beech Creek,Bedford,Stream,90.0,FIRST_WORD,"First word match with suffix 'creek', same county",Beech Orchard,Bedford,35.5045,-86.4714,1276808,35.5045,-86.4714,0.0
420,Beech Orchard,Bedford,,1828.0,11648.0,1276808.0,Beech Creek,Bedford,Stream,90.0,FIRST_WORD,"First word match with suffix 'creek', same county",Beech Orchard,Bedford,35.5045,-86.4714,1276808,35.8345,-89.0972,149.14633851987898
421,Beech Plains,Bedford,,,7904.0,1276806.0,Beech Creek,Bedford,Stream,90.0,FIRST_WORD,"First word match with suffix 'creek', same county",Beech Plains,Bedford,35.5045,-86.4714,1276806,35.5045,-86.4714,0.0
421,Beech Plains,Bedford,,,11648.0,1276808.0,Beech Creek,Bedford,Stream,90.0,FIRST_WORD,"First word match with suffix 'creek', same county",Beech Plains,Bedford,35.5045,-86.4714,1276808,35.5045,-86.4714,0.0
421,Beech Plains,Bedford,,,11648.0,1276808.0,Beech Creek,Bedford,Stream,90.0,FIRST_WORD,"First word match with suffix 'creek', same county",Beech Plains,Bedford,35.5045,-86.4714,1276808,35.8345,-89.0972,149.14633851987898
422,Beech Point,Gibson,,1855.0,2374.0,1276857.0,Beech Spring,Wayne,Spring,75.0,FIRST_WORD,"First word match, different county",Beech Point,Gibson,36.0345,-88.8972,1276857,35.3145,-87.7472,81.49650518308263
422,Beech Point,Gibson,,1855.0,4130.0,1303148.0,Beech Spring,Washington,Spring,75.0,FIRST_WORD,"First word match, different county",Beech Point,Gibson,36.0345,-88.8972,1303148,36.2945,-82.5072,356.84891038205575
422,Beech Point,Gibson,,1855.0,4663.0,1640278.0,Beech Spring,Washington,Spring,75.0,FIRST_WORD,"First word match, different county",Beech Point,Gibson,36.0345,-88.8972,1640278,36.2945,-82.5072,356.84891038205575
423,Beech Point,Obion,,1883.0,2374.0,1276857.0,Beech Spring,Wayne,Spring,75.0,FIRST_WORD,"First word match, different county",Beech Point,Obion,36.3245,-89.1972,1276857,35.3145,-87.7472,107.09858168856755
423,Beech Point,Obion,,1883.0,4130.0,1303148.0,Beech Spring,Washington,Spring,75.0,FIRST_WORD,"First word match, different county",Beech Point,Obion,36.3245,-89.1972,1303148,36.2945,-82.5072,372.436818679677
423,Beech Point,Obion,,1883.0,4663.0,1640278.0,Beech Spring,Washington,Spring,75.0,FIRST_WORD,"First word match, different county",Beech Point,Obion,36.3245,-89.1972,1640278,36.2945,-82.5072,372.436818679677
434,Beefranch,Dickson,,,6316.0,1276766.0,Bee Branch,Union,Stream,74.21052631578947,FUZZY_GENERAL,"Fuzzy match (score: 84.21052631578947), different county",Beefranch,Dickson,36.1345,-87.3972,1276766,36.2645,-83.8872,195.9106247634368
434,Beefranch,Dickson,,,7182.0,1276758.0,Bee Branch,Marion,Stream,74.21052631578947,FUZZY_GENERAL,"Fuzzy match (score: 84.21052631578947), different county",Beefranch,Dickson,36.1345,-87.3972,1276758,35.1145,-85.6472,120.94427167815775
434,Beefranch,Dickson,,,7183.0,1276767.0,Bee Branch,Stewart,Stream,74.21052631578947,FUZZY_GENERAL,"Fuzzy match (score: 84.21052631578947), different county",Beefranch,Dickson,36.1345,-87.3972,1276767,36.5045,-87.8472,35.79499499804599
441,Bell Air,Hardin,1870.0,1871.0,2376.0,1276946.0,Bell Slough,Hardin,Gut,90.0,FIRST_WORD,"First word match with suffix 'slough', same county",Bell Air,Hardin,35.1845,-88.2472,1276946,35.1845,-88.2472,0.0
441,Bell Air,Hardin,1870.0,1871.0,10831.0,1276900.0,Bell Branch,Hardin,Stream,90.0,FIRST_WORD,"First word match with suffix 'branch', same county",Bell Air,Hardin,35.1845,-88.2472,1276900,35.1845,-88.2472,0.0
451,Belknaps,Stewart,,,977.0,1643544.0,Elkins (historical),Cannon,Populated Place,70.0,FUZZY_GENERAL,"Fuzzy match (score: 71.42857142857143), different county",Belknaps,Stewart,36.5045,-87.8472,1643544,35.8095,-86.0583,110.7521623264517
451,Belknaps,Stewart,,,30913.0,1283649.0,Elkins,Franklin,Populated Place,70.0,FUZZY_GENERAL,"Fuzzy match (score: 71.42857142857143), different county",Belknaps,Stewart,36.5045,-87.8472,1283649,35.1545,-86.0972,135.32014905354163
451,Belknaps,Stewart,,,33203.0,1315013.0,Elkins,Hickman,Populated Place,70.0,FUZZY_GENERAL,"Fuzzy match (score: 71.42857142857143), different county",Belknaps,Stewart,36.5045,-87.8472,1315013,35.8145,-87.3972,53.88269256565718
462,Bellboro,Williamson,,,28853.0,1276973.0,Bellwood,Wilson,Populated Place,70.0,FUZZY_GENERAL,"Fuzzy match (score: 75.0), different county",Bellboro,Williamson,35.8745,-86.8672,1276973,36.1745,-86.2972,38.00466433552556
462,Bellboro,Williamson,,,30265.0,1287843.0,Hillsboro,Coffee,Populated Place,70.0,FUZZY_GENERAL,"Fuzzy match (score: 70.58823529411764), different county",Bellboro,Williamson,35.8745,-86.8672,1287843,35.4845,-86.0972,50.93109213104692
462,Bellboro,Williamson,,,32457.0,1305096.0,Bellsburg,Dickson,Populated Place,70.0,FUZZY_GENERAL,"Fuzzy match (score: 70.58823529411764), different county",Bellboro,Williamson,35.8745,-86.8672,1305096,36.1345,-87.3972,34.64740511804637
480,Bell Mind,Dickson,,,1234.0,1313304.0,Bell Hollow (historical),Dickson,Populated Place,90.0,FIRST_WORD,"First word match with suffix 'hollow', same county",Bell Mind,Dickson,36.1345,-87.3972,1313304,36.1345,-87.3972,0.0
480,Bell Mind,Dickson,,,13931.0,1276905.0,Bell Branch,Dickson,Stream,90.0,FIRST_WORD,"First word match with suffix 'branch', same county",Bell Mind,Dickson,36.1345,-87.3972,1276905,36.1345,-87.3972,0.0
481,Bellmont,Bedford,,,28242.0,1314663.0,Belmont,Anderson,Populated Place,83.33333333333333,FUZZY_GENERAL,"Fuzzy match (score: 93.33333333333333), different county",Bellmont,Bedford,35.5045,-86.4714,1314663,36.1034,-84.1888,134.4395385271793
481,Bellmont,Bedford,,,29163.0,1314662.0,Belmont,Coffee,Populated Place,83.33333333333333,FUZZY_GENERAL,"Fuzzy match (score: 93.33333333333333), different county",Bellmont,Bedford,35.5045,-86.4714,1314662,35.4845,-86.0972,21.096768012065507
481,Bellmont,Bedford,,,29503.0,1276976.0,Belmont,Jefferson,Populated Place,83.33333333333333,FUZZY_GENERAL,"Fuzzy match (score: 93.33333333333333), different county",Bellmont,Bedford,35.5045,-86.4714,1276976,36.0045,-83.4972,170.31047904632914
482,Bell Mountain,Bedford,,,26338.0,1327557.0,Bell Mountain,Monroe,Summit,90.0,FUZZY_GENERAL,"Fuzzy match (score: 100.0), different county",Bell Mountain,Bedford,35.5045,-86.4714,1327557,35.4445,-84.2372,125.78691226698824
482,Bell Mountain,Bedford,,,31665.0,1276910.0,Bell Buckle,Bedford,Populated Place,90.0,FIRST_WORD,"First word match with suffix 'buckle', same county",Bell Mountain,Bedford,35.5045,-86.4714,1276910,35.5045,-86.4714,0.0
507,Beloat,Sumner,1879.0,1898.0,28242.0,1314663.0,Belmont,Anderson,Populated Place,70.0,FUZZY_GENERAL,"Fuzzy match (score: 76.92307692307692), different county",Beloat,Sumner,36.4645,-86.4672,1314663,36.1034,-84.1888,129.33114071788032
507,Beloat,Sumner,1879.0,1898.0,29163.0,1314662.0,Belmont,Coffee,Populated Place,70.0,FUZZY_GENERAL,"Fuzzy match (score: 76.92307692307692), different county",Beloat,Sumner,36.4645,-86.4672,1314662,35.4845,-86.0972,70.80578947453259
507,Beloat,Sumner,1879.0,1898.0,29503.0,1276976.0,Belmont,Jefferson,Populated Place,70.0,FUZZY_GENERAL,"Fuzzy match (score: 76.92307692307692), different county",Beloat,Sumner,36.4645,-86.4672,1276976,36.0045,-83.4972,168.54774945521424
515,Bending Chestnut,Williamson,,,7135.0,1640654.0,Chestnut Branch,Polk,Stream,70.0,FUZZY_GENERAL,"Fuzzy match (score: 70.96774193548387), different county",Bending Chestnut,Williamson,35.8745,-86.8672,1640654,35.0745,-84.5372,142.2832856900645
515,Bending Chestnut,Williamson,,,10996.0,1280371.0,Chestnut Branch,Weakley,Stream,70.0,FUZZY_GENERAL,"Fuzzy match (score: 70.96774193548387), different county",Bending Chestnut,Williamson,35.8745,-86.8672,1280371,36.3345,-88.7172,108.05803256898042
515,Bending Chestnut,Williamson,,,12381.0,1309643.0,Chestnut Branch,Morgan,Stream,70.0,FUZZY_GENERAL,"Fuzzy match (score: 70.96774193548387), different county",Bending Chestnut,Williamson,35.8745,-86.8672,1309643,36.1145,-84.6472,125.20928567324242
517,Benedict,Cumberland,1924.0,1931.0,3747.0,1301870.0,Benedicts Lake,Tipton,Reservoir,70.0,FUZZY_GENERAL,"Fuzzy match (score: 72.72727272727273), different county",Benedict,Cumberland,35.9495,-84.8972,1301870,35.4945,-89.7972,276.63976718570024
517,Benedict,Cumberland,1924.0,1931.0,29651.0,1646957.0,Rice Bend,Unicoi,Populated Place,70.0,FUZZY_GENERAL,"Fuzzy match (score: 70.58823529411764), different county",Benedict,Cumberland,35.9495,-84.8972,1646957,36.1045,-82.3472,142.89678311960756
520,Bennett,Campbell,1904.0,1922.0,20246.0,1269268.0,Bennett Ridge,Lewis,Ridge,80.0,NAME_VARIATION,Name variation: bennett ridge,Bennett,Campbell,36.3989,-84.1513,1269268,35.4845,-87.4972,197.54044679335158
520,Bennett,Campbell,1904.0,1922.0,6663.0,1277008.0,Bennett Branch,Moore,Stream,80.0,NAME_VARIATION,Name variation: bennett branch,Bennett,Campbell,36.3989,-84.1513,1277008,35.2645,-86.3672,146.8048934358427
520,Bennett,Campbell,1904.0,1922.0,6663.0,1277008.0,Bennett Branch,Moore,Stream,80.0,NAME_VARIATION,Name variation: bennett branch,Bennett,Campbell,36.3989,-84.1513,1277008,35.5045,-86.4714,143.7336936353003
520,Bennett,Campbell,1904.0,1922.0,6664.0,1277008.0,Bennett Branch,Bedford,Stream,80.0,NAME_VARIATION,Name variation: bennett branch,Bennett,Campbell,36.3989,-84.1513,1277008,35.2645,-86.3672,146.8048934358427
520,Bennett,Campbell,1904.0,1922.0,6664.0,1277008.0,Bennett Branch,Bedford,Stream,80.0,NAME_VARIATION,Name variation: bennett branch,Bennett,Campbell,36.3989,-84.1513,1277008,35.5045,-86.4714,143.7336936353003
522,Bennetts Station,Knox,,,6143.0,1305105.0,Bennetts Creek,Henry,Stream,75.0,FIRST_WORD,"First word match, different county",Bennetts Station,Knox,36.0045,-83.9372,1305105,36.2945,-88.2972,244.06887536273598
522,Bennetts Station,Knox,,,6143.0,1305105.0,Bennetts Creek,Henry,Stream,75.0,FIRST_WORD,"First word match, different county",Bennetts Station,Knox,36.0045,-83.9372,1305105,36.0773,-88.0589,230.3257951938488
522,Bennetts Station,Knox,,,6144.0,1305105.0,Bennetts Creek,Benton,Stream,75.0,FIRST_WORD,"First word match, different county",Bennetts Station,Knox,36.0045,-83.9372,1305105,36.2945,-88.2972,244.06887536273598
522,Bennetts Station,Knox,,,6144.0,1305105.0,Bennetts Creek,Benton,Stream,75.0,FIRST_WORD,"First word match, different county",Bennetts Station,Knox,36.0045,-83.9372,1305105,36.0773,-88.0589,230.3257951938488
522,Bennetts Station,Knox,,,10940.0,1277019.0,Bennetts Creek,Fayette,Stream,75.0,FIRST_WORD,"First word match, different county",Bennetts Station,Knox,36.0045,-83.9372,1277019,35.2145,-89.4472,314.2636922716974
524,Benson Town,Lawrence,,,22648.0,1647150.0,Benson Hollow,Cocke,Valley,75.0,FIRST_WORD,"First word match, different county",Benson Town,Lawrence,35.2145,-87.3972,1647150,35.9345,-83.134,244.68530464460963
524,Benson Town,Lawrence,,,6192.0,1277022.0,Benson Branch,Weakley,Stream,75.0,FIRST_WORD,"First word match, different county",Benson Town,Lawrence,35.2145,-87.3972,1277022,36.3345,-88.7172,107.0726870666296
524,Benson Town,Lawrence,,,25534.0,1277023.0,Benson Mountain,Sevier,Summit,75.0,FIRST_WORD,"First word match, different county",Benson Town,Lawrence,35.2145,-87.3972,1277023,35.7745,-83.5372,220.5578428714409
526,Bentley,Sullivan,1900.0,1900.0,28099.0,1315221.0,Henley,Franklin,Populated Place,70.0,FUZZY_GENERAL,"Fuzzy match (score: 76.92307692307692), different county",Bentley,Sullivan,36.5145,-82.2872,1315221,35.1545,-86.0972,233.17744488421604
526,Bentley,Sullivan,1900.0,1900.0,31592.0,1314635.0,Batley,Anderson,Populated Place,70.0,FUZZY_GENERAL,"Fuzzy match (score: 76.92307692307692), different county",Bentley,Sullivan,36.5145,-82.2872,1314635,36.1034,-84.1888,109.62548172766357
526,Bentley,Sullivan,1900.0,1900.0,882.0,1313302.0,Beasley (historical),Dickson,Populated Place,70.0,FUZZY_GENERAL,"Fuzzy match (score: 71.42857142857143), different county",Bentley,Sullivan,36.5145,-82.2872,1313302,36.1345,-87.3972,285.64960512163077
527,Benton,Bedford,1834.0,1841.0,1764.0,1310502.0,Benton (historical),Marshall,Populated Place,90.0,FUZZY_GENERAL,"Fuzzy match (score: 100.0), different county",Benton,Bedford,35.5045,-86.4714,1310502,35.4545,-86.7972,18.654744517701545
527,Benton,Bedford,1834.0,1841.0,33444.0,1327567.0,Benton,Polk,Populated Place,90.0,FUZZY_GENERAL,"Fuzzy match (score: 100.0), different county",Benton,Bedford,35.5045,-86.4714,1327567,35.0745,-84.5372,113.0613042448358
534,Benton Station,Benton,,1873.0,31030.0,1327570.0,Benton Station,Polk,Populated Place,90.0,FUZZY_GENERAL,"Fuzzy match (score: 100.0), different county",Benton Station,Benton,36.0773,-88.0589,1327570,35.0745,-84.5372,209.68305093877086
534,Benton Station,Benton,,1873.0,33457.0,1314664.0,Benton Cut,Benton,Populated Place,90.0,FIRST_WORD,"First word match with suffix 'cut', same county",Benton Station,Benton,36.0773,-88.0589,1314664,36.0773,-88.0589,0.0
543,Berendsen Town,Lawrence,,,29324.0,1276650.0,Beardstown,Perry,Populated Place,70.0,FUZZY_GENERAL,"Fuzzy match (score: 75.0), different county",Berendsen Town,Lawrence,35.2145,-87.3972,1276650,35.6345,-87.8472,38.525495590431625
543,Berendsen Town,Lawrence,,,33715.0,1314729.0,Breedenton,Meigs,Populated Place,70.0,FUZZY_GENERAL,"Fuzzy match (score: 75.0), different county",Berendsen Town,Lawrence,35.2145,-87.3972,1314729,35.4945,-84.7372,151.143172692001
543,Berendsen Town,Lawrence,,,34784.0,2405310.0,Town of Braden,Fayette,Civil,70.0,FUZZY_GENERAL,"Fuzzy match (score: 71.42857142857143), different county",Berendsen Town,Lawrence,35.2145,-87.3972,2405310,35.2145,-89.4472,115.72589498815539
545,Beriah,Bradley,,1901.0,1501.0,1643500.0,Berea (historical),Cannon,Populated Place,70.0,FUZZY_GENERAL,"Fuzzy match (score: 72.72727272727273), different county",Beriah,Bradley,35.159,-84.8766,1643500,35.8095,-86.0583,80.2543553405748
545,Beriah,Bradley,,1901.0,28957.0,1277033.0,Berea,Giles,Populated Place,70.0,FUZZY_GENERAL,"Fuzzy match (score: 72.72727272727273), different county",Beriah,Bradley,35.159,-84.8766,1277033,35.1845,-87.0472,122.61085950772966
545,Beriah,Bradley,,1901.0,30593.0,1314665.0,Berea,Warren,Populated Place,70.0,FUZZY_GENERAL,"Fuzzy match (score: 72.72727272727273), different county",Beriah,Bradley,35.159,-84.8766,1314665,35.6945,-85.7872,63.2280148532729
548,Bethel,Lewis,,,1354.0,1326712.0,Bethel (historical),Obion,Populated Place,90.0,FUZZY_GENERAL,"Fuzzy match (score: 100.0), different county",Bethel,Lewis,35.4845,-87.4972,1326712,36.3245,-89.1972,111.45020903650227
548,Bethel,Lewis,,,27765.0,1277094.0,Bethel,Giles,Populated Place,90.0,FUZZY_GENERAL,"Fuzzy match (score: 100.0), different county",Bethel,Lewis,35.4845,-87.4972,1277094,35.1845,-87.0472,32.758761837730226
548,Bethel,Lewis,,,27798.0,1314668.0,Bethel,Haywood,Populated Place,90.0,FUZZY_GENERAL,"Fuzzy match (score: 100.0), different county",Bethel,Lewis,35.4845,-87.4972,1314668,35.5645,-89.2472,98.56725776213781
564,Bethlehem,Robertson,,,991.0,1643501.0,Bethlehem (historical),Cannon,Populated Place,90.0,FUZZY_GENERAL,"Fuzzy match (score: 100.0), different county",Bethlehem,Robertson,36.5145,-86.8672,1643501,35.8095,-86.0583,66.40220075844003
564,Bethlehem,Robertson,,,27767.0,1277150.0,Bethlehem,Williamson,Populated Place,90.0,FUZZY_GENERAL,"Fuzzy match (score: 100.0), different county",Bethlehem,Robertson,36.5145,-86.8672,1277150,35.8745,-86.8672,44.22245445533185
564,Bethlehem,Robertson,,,27799.0,1314674.0,Bethlehem,Henry,Populated Place,90.0,FUZZY_GENERAL,"Fuzzy match (score: 100.0), different county",Bethlehem,Robertson,36.5145,-86.8672,1314674,36.2945,-88.2972,80.96558782996036
570,Bethpage,Trousdale,,,28910.0,1313647.0,Bethpage,Humphreys,Populated Place,90.0,FUZZY_GENERAL,"Fuzzy match (score: 100.0), different county",Bethpage,Trousdale,36.3845,-86.1472,1313647,36.0145,-87.6972,90.1278439971013
570,Bethpage,Trousdale,,,30001.0,1277178.0,Bethpage,Sumner,Populated Place,90.0,FUZZY_GENERAL,"Fuzzy match (score: 100.0), different county",Bethpage,Trousdale,36.3845,-86.1472,1277178,36.4645,-86.4672,18.630524572386157
583,Biddie,Union,,1903.0,1384.0,1313367.0,Addie (historical),Davidson,Populated Place,70.0,FUZZY_GENERAL,"Fuzzy match (score: 72.72727272727273), different county",Biddie,Union,36.2645,-83.8872,1313367,36.1667,-86.7844,161.64806075525578
583,Biddie,Union,,1903.0,31065.0,1278340.0,Bride,Tipton,Populated Place,70.0,FUZZY_GENERAL,"Fuzzy match (score: 72.72727272727273), different county",Biddie,Union,36.2645,-83.8872,1278340,35.4945,-89.7972,335.0739788201376
611,Big Rock,Dickson,,,21757.0,1277377.0,Big Rock,Hancock,Pillar,90.0,FUZZY_GENERAL,"Fuzzy match (score: 100.0), different county",Big Rock,Dickson,36.1345,-87.3972,1277377,36.5145,-83.2472,232.499910798804
611,Big Rock,Dickson,,,21757.0,1277377.0,Big Rock,Hancock,Pillar,90.0,FUZZY_GENERAL,"Fuzzy match (score: 100.0), different county",Big Rock,Dickson,36.1345,-87.3972,1277377,36.4345,-82.9472,248.70232110774907
611,Big Rock,Dickson,,,21758.0,1277377.0,Big Rock,Hawkins,Pillar,90.0,FUZZY_GENERAL,"Fuzzy match (score: 100.0), different county",Big Rock,Dickson,36.1345,-87.3972,1277377,36.5145,-83.2472,232.499910798804
611,Big Rock,Dickson,,,21758.0,1277377.0,Big Rock,Hawkins,Pillar,90.0,FUZZY_GENERAL,"Fuzzy match (score: 100.0), different county",Big Rock,Dickson,36.1345,-87.3972,1277377,36.4345,-82.9472,248.70232110774907
611,Big Rock,Dickson,,,25233.0,1277375.0,Big Rock,Warren,Pillar,90.0,FUZZY_GENERAL,"Fuzzy match (score: 100.0), different county",Big Rock,Dickson,36.1345,-87.3972,1277375,35.6945,-85.7872,95.08813018640157
614,Big Sandy,Fentress,,,28640.0,1277379.0,Big Sandy,Benton,Populated Place,90.0,FUZZY_GENERAL,"Fuzzy match (score: 100.0), different county",Big Sandy,Fentress,36.3845,-84.9472,1277379,36.0773,-88.0589,174.72300255452956
614,Big Sandy,Fentress,,,31927.0,1314681.0,Big Sandy,Washington,Populated Place,90.0,FUZZY_GENERAL,"Fuzzy match (score: 100.0), different county",Big Sandy,Fentress,36.3845,-84.9472,1314681,36.2945,-82.5072,135.94780946284575
614,Big Sandy,Fentress,,,7687.0,1277248.0,Big Branch,Fentress,Stream,90.0,FIRST_WORD,"First word match with suffix 'branch', same county",Big Sandy,Fentress,36.3845,-84.9472,1277248,36.3845,-84.9472,0.0
637,Birch Pond,Fayette,,1845.0,6448.0,1298087.0,Pond Branch,Lawrence,Stream,75.71428571428572,FUZZY_GENERAL,"Fuzzy match (score: 85.71428571428572), different county",Birch Pond,Fayette,35.2145,-89.4472,1298087,35.2145,-87.3972,115.72589498815539
637,Birch Pond,Fayette,,1845.0,9556.0,1298089.0,Pond Branch,Benton,Stream,75.71428571428572,FUZZY_GENERAL,"Fuzzy match (score: 85.71428571428572), different county",Birch Pond,Fayette,35.2145,-89.4472,1298089,36.0773,-88.0589,98.1363701866904
637,Birch Pond,Fayette,,1845.0,9556.0,1298089.0,Pond Branch,Benton,Stream,75.71428571428572,FUZZY_GENERAL,"Fuzzy match (score: 85.71428571428572), different county",Birch Pond,Fayette,35.2145,-89.4472,1298089,35.9795,-88.5972,71.23784483479618
637,Birch Pond,Fayette,,1845.0,9557.0,1298089.0,Pond Branch,Carroll,Stream,75.71428571428572,FUZZY_GENERAL,"Fuzzy match (score: 85.71428571428572), different county",Birch Pond,Fayette,35.2145,-89.4472,1298089,36.0773,-88.0589,98.1363701866904
637,Birch Pond,Fayette,,1845.0,9557.0,1298089.0,Pond Branch,Carroll,Stream,75.71428571428572,FUZZY_GENERAL,"Fuzzy match (score: 85.71428571428572), different county",Birch Pond,Fayette,35.2145,-89.4472,1298089,35.9795,-88.5972,71.23784483479618
645,Birds Bridge,Greene,,1904.0,18983.0,1277367.0,Big Ridge,Greene,Ridge,76.19047619047619,FUZZY_WITH_COUNTY,Fuzzy match in same county (score: 76.19047619047619),Birds Bridge,Greene,36.1545,-82.8472,1277367,36.4345,-82.9472,20.132916958364024
645,Birds Bridge,Greene,,1904.0,18983.0,1277367.0,Big Ridge,Greene,Ridge,76.19047619047619,FUZZY_WITH_COUNTY,Fuzzy match in same county (score: 76.19047619047619),Birds Bridge,Greene,36.1545,-82.8472,1277367,36.1545,-82.8472,0.0
645,Birds Bridge,Greene,,1904.0,22485.0,1277364.0,Big Ridge,Greene,Ridge,76.19047619047619,FUZZY_WITH_COUNTY,Fuzzy match in same county (score: 76.19047619047619),Birds Bridge,Greene,36.1545,-82.8472,1277364,36.1545,-82.8472,0.0
647,Birdsong Bluff,Madison,,1833.0,8276.0,1277516.0,Birdsong Creek,Carroll,Stream,75.0,FIRST_WORD,"First word match, different county",Birdsong Bluff,Madison,35.6145,-88.8972,1277516,35.9795,-88.5972,30.311175495151527
647,Birdsong Bluff,Madison,,1833.0,8276.0,1277516.0,Birdsong Creek,Carroll,Stream,75.0,FIRST_WORD,"First word match, different county",Birdsong Bluff,Madison,35.6145,-88.8972,1277516,36.0773,-88.0589,56.808316947129306
647,Birdsong Bluff,Madison,,1833.0,8277.0,1277516.0,Birdsong Creek,Benton,Stream,75.0,FIRST_WORD,"First word match, different county",Birdsong Bluff,Madison,35.6145,-88.8972,1277516,35.9795,-88.5972,30.311175495151527
647,Birdsong Bluff,Madison,,1833.0,8277.0,1277516.0,Birdsong Creek,Benton,Stream,75.0,FIRST_WORD,"First word match, different county",Birdsong Bluff,Madison,35.6145,-88.8972,1277516,36.0773,-88.0589,56.808316947129306
647,Birdsong Bluff,Madison,,1833.0,9812.0,1277513.0,Birdsong Branch,Giles,Stream,75.0,FIRST_WORD,"First word match, different county",Birdsong Bluff,Madison,35.6145,-88.8972,1277513,35.1845,-87.0472,108.35017159659616
662,Black Jack (Blackjack),Robertson,,1895.0,29830.0,1314688.0,Black Jack,Coffee,Populated Place,90.0,FUZZY_GENERAL,"Fuzzy match (score: 100.0), different county",Black Jack (Blackjack),Robertson,36.5145,-86.8672,1314688,35.4845,-86.0972,83.17391986717875
662,Black Jack (Blackjack),Robertson,,1895.0,7193.0,1277548.0,Black Branch,Robertson,Stream,90.0,FIRST_WORD,"First word match with suffix 'branch', same county",Black Jack (Blackjack),Robertson,36.5145,-86.8672,1277548,36.5145,-86.8672,0.0
667,Black Oak Grove,Hardeman,,1859.0,28243.0,1314689.0,Black Oak,White,Populated Place,80.0,NAME_VARIATION,Name variation: black oak,Black Oak Grove,Hardeman,35.1845,-88.9472,1314689,35.9245,-85.4672,202.1877201514779
667,Black Oak Grove,Hardeman,,1859.0,28526.0,1277589.0,Black Oak,Scott,Populated Place,80.0,NAME_VARIATION,Name variation: black oak,Black Oak Grove,Hardeman,35.1845,-88.9472,1277589,36.4745,-84.5872,259.9793486073573
667,Black Oak Grove,Hardeman,,1859.0,29479.0,1277588.0,Black Oak,Knox,Populated Place,80.0,NAME_VARIATION,Name variation: black oak,Black Oak Grove,Hardeman,35.1845,-88.9472,1277588,36.0045,-83.9372,287.1075639325292
670,Blackwater,Hawkins,,1828.0,5467.0,1277619.0,Blackwater Creek,Hancock,Stream,80.0,NAME_VARIATION,Name variation: blackwater creek,Blackwater,Hawkins,36.4345,-82.9472,1277619,36.5145,-83.2472,17.56152264835818
670,Blackwater,Hawkins,,1828.0,5467.0,1277619.0,Blackwater Creek,Hancock,Stream,80.0,NAME_VARIATION,Name variation: blackwater creek,Blackwater,Hawkins,36.4345,-82.9472,1277619,,,
670,Blackwater,Hawkins,,1828.0,5468.0,1277619.0,Blackwater Creek,Lee,Stream,80.0,NAME_VARIATION,Name variation: blackwater creek,Blackwater,Hawkins,36.4345,-82.9472,1277619,36.5145,-83.2472,17.56152264835818
670,Blackwater,Hawkins,,1828.0,5468.0,1277619.0,Blackwater Creek,Lee,Stream,80.0,NAME_VARIATION,Name variation: blackwater creek,Blackwater,Hawkins,36.4345,-82.9472,1277619,,,
670,Blackwater,Hawkins,,1828.0,9659.0,1463534.0,Blackwater Creek,Hancock,Stream,80.0,NAME_VARIATION,Name variation: blackwater creek,Blackwater,Hawkins,36.4345,-82.9472,1463534,36.5145,-83.2472,17.56152264835818
670,Blackwater,Hawkins,,1828.0,9659.0,1463534.0,Blackwater Creek,Hancock,Stream,80.0,NAME_VARIATION,Name variation: blackwater creek,Blackwater,Hawkins,36.4345,-82.9472,1463534,,,
675,Blacks,Lawrence,1874.0,,1345.0,1307603.0,Blacks Ford (historical),Anderson,Crossing,75.0,FIRST_WORD,"First word match, different county",Blacks,Lawrence,35.2145,-87.3972,1307603,36.1034,-84.1888,190.29772043410125
675,Blacks,Lawrence,1874.0,,961.0,1311855.0,Blacks Ferry (historical),Warren,Crossing,75.0,FIRST_WORD,"First word match, different county",Blacks,Lawrence,35.2145,-87.3972,1311855,35.6945,-85.7872,96.49657573839436
675,Blacks,Lawrence,1874.0,,1355.0,1307602.0,Blacks Ferry (historical),Anderson,Crossing,75.0,FIRST_WORD,"First word match, different county",Blacks,Lawrence,35.2145,-87.3972,1307602,36.1034,-84.1888,190.29772043410125
688,Blairsport,Roane,,1981.0,31955.0,1275948.0,Ashport,Lauderdale,Populated Place,70.0,FUZZY_GENERAL,"Fuzzy match (score: 70.58823529411764), different county",Blairsport,Roane,35.8645,-84.5372,1275948,35.7745,-89.6472,286.3420729427391
688,Blairsport,Roane,,1981.0,438.0,1644653.0,Brownsport (historical),Decatur,Populated Place,70.0,FUZZY_GENERAL,"Fuzzy match (score: 70.0), different county",Blairsport,Roane,35.8645,-84.5372,1644653,35.5945,-88.1222,201.94265117708235
689,Blairton,Cumberland,,1879.0,734.0,1643502.0,Blanton (historical),Cannon,Populated Place,70.0,FUZZY_GENERAL,"Fuzzy match (score: 80.0), different county",Blairton,Cumberland,35.9495,-84.8972,1643502,35.8095,-86.0583,65.72124477521358
689,Blairton,Cumberland,,1879.0,32479.0,1314691.0,Blair,Roane,Populated Place,70.0,FUZZY_GENERAL,"Fuzzy match (score: 76.92307692307692), different county",Blairton,Cumberland,35.9495,-84.8972,1314691,35.8645,-84.5372,20.98669231530261
689,Blairton,Cumberland,,1879.0,31574.0,1314640.0,Beartown,Sullivan,Populated Place,70.0,FUZZY_GENERAL,"Fuzzy match (score: 75.0), different county",Blairton,Cumberland,35.9495,-84.8972,1314640,36.5145,-82.2872,150.61329277908044
696,Blanking,Hawkins,,1903.0,27690.0,1306664.0,Lancing,Morgan,Populated Place,70.0,FUZZY_GENERAL,"Fuzzy match (score: 80.0), different county",Blanking,Hawkins,36.4345,-82.9472,1306664,36.1145,-84.6472,97.24561814110334
696,Blanking,Hawkins,,1903.0,29672.0,1312946.0,Landings,Williamson,Populated Place,70.0,FUZZY_GENERAL,"Fuzzy match (score: 75.0), different county",Blanking,Hawkins,36.4345,-82.9472,1312946,35.8745,-86.8672,222.08214401486165
696,Blanking,Hawkins,,1903.0,6029.0,1290193.0,King Branch,Giles,Stream,70.0,FUZZY_GENERAL,"Fuzzy match (score: 73.6842105263158), different county",Blanking,Hawkins,36.4345,-82.9472,1290193,35.1845,-87.0472,245.41947313727243
708,Bledsoe Stand,Fentress,,,15557.0,1305289.0,Bledsoe Creek,Sumner,Stream,75.0,FIRST_WORD,"First word match, different county",Bledsoe Stand,Fentress,36.3845,-84.9472,1305289,36.4645,-86.4672,84.68969654383545
708,Bledsoe Stand,Fentress,,,15557.0,1305289.0,Bledsoe Creek,Sumner,Stream,75.0,FIRST_WORD,"First word match, different county",Bledsoe Stand,Fentress,36.3845,-84.9472,1305289,36.5345,-85.9972,59.26530434339135
708,Bledsoe Stand,Fentress,,,15558.0,1305289.0,Bledsoe Creek,Macon,Stream,75.0,FIRST_WORD,"First word match, different county",Bledsoe Stand,Fentress,36.3845,-84.9472,1305289,36.4645,-86.4672,84.68969654383545
708,Bledsoe Stand,Fentress,,,15558.0,1305289.0,Bledsoe Creek,Macon,Stream,75.0,FIRST_WORD,"First word match, different county",Bledsoe Stand,Fentress,36.3845,-84.9472,1305289,36.5345,-85.9972,59.26530434339135
708,Bledsoe Stand,Fentress,,,21281.0,1277683.0,Bledsoe Hollow,Bedford,Valley,75.0,FIRST_WORD,"First word match, different county",Bledsoe Stand,Fentress,36.3845,-84.9472,1277683,35.5045,-86.4714,104.72276926683513
709,Blend,DeKalb,1901.0,,290.0,1313213.0,Ben (historical),Maury,Populated Place,70.0,FUZZY_GENERAL,"Fuzzy match (score: 75.0), different county",Blend,DeKalb,36.0345,-85.8472,1313213,35.6145,-87.0472,73.22584523050304
709,Blend,DeKalb,1901.0,,30386.0,1307314.0,Blondy,Lewis,Populated Place,70.0,FUZZY_GENERAL,"Fuzzy match (score: 72.72727272727273), different county",Blend,DeKalb,36.0345,-85.8472,1307314,35.4845,-87.4972,100.01682373650691
709,Blend,DeKalb,1901.0,,190.0,1310599.0,Blue Pond (historical),Benton,Lake,70.0,FUZZY_GENERAL,"Fuzzy match (score: 71.42857142857143), different county",Blend,DeKalb,36.0345,-85.8472,1310599,36.0773,-88.0589,123.58153666903905
724,Blooming Grove,Lawrence,,,28244.0,1314695.0,Blooming Grove,Giles,Populated Place,90.0,FUZZY_GENERAL,"Fuzzy match (score: 100.0), different county",Blooming Grove,Lawrence,35.2145,-87.3972,1314695,35.1845,-87.0472,19.870491255628366
724,Blooming Grove,Lawrence,,,30154.0,1326732.0,Blooming Grove,Weakley,Populated Place,90.0,FUZZY_GENERAL,"Fuzzy match (score: 100.0), different county",Blooming Grove,Lawrence,35.2145,-87.3972,1326732,36.3345,-88.7172,107.0726870666296
740,Blows Ferry,Knox,,,871.0,1313243.0,Browns Ferry (historical),Hardin,Crossing,76.95652173913044,FUZZY_GENERAL,"Fuzzy match (score: 86.95652173913044), different county",Blows Ferry,Knox,36.0045,-83.9372,1313243,35.1845,-88.2472,248.68280514478272
740,Blows Ferry,Knox,,,1823.0,1278626.0,Browns Ferry,Hamilton,Crossing,76.95652173913044,FUZZY_GENERAL,"Fuzzy match (score: 86.95652173913044), different county",Blows Ferry,Knox,36.0045,-83.9372,1278626,35.1245,-85.2972,97.67562732561329
753,Alexanders Place,,,,4772.0,1642817.0,Alexanders Shoals,Hawkins,Bar,80.0,FIRST_WORD,First word match with suffix 'shoals',Alexanders Place,,,,1642817,36.4345,-82.9472,
753,Alexanders Place,,,,4849.0,1643130.0,Alexanders Shoals,Greene,Bar,80.0,FIRST_WORD,First word match with suffix 'shoals',Alexanders Place,,,,1643130,36.1545,-82.8472,
765,Blue Spring,Stewart,,1866.0,2435.0,1277776.0,Blue Spring,Marion,Spring,90.0,FUZZY_GENERAL,"Fuzzy match (score: 100.0), different county",Blue Spring,Stewart,36.5045,-87.8472,1277776,35.1145,-85.6472,156.26866599851215
765,Blue Spring,Stewart,,1866.0,2436.0,1277777.0,Blue Spring,Franklin,Spring,90.0,FUZZY_GENERAL,"Fuzzy match (score: 100.0), different county",Blue Spring,Stewart,36.5045,-87.8472,1277777,35.1545,-86.0972,135.32014905354163
765,Blue Spring,Stewart,,1866.0,2437.0,1277778.0,Blue Spring,Grundy,Spring,90.0,FUZZY_GENERAL,"Fuzzy match (score: 100.0), different county",Blue Spring,Stewart,36.5045,-87.8472,1277778,35.3845,-85.6972,143.0128312627141
808,Bolen,Rhea,1886.0,1888.0,30196.0,1310517.0,Bowen,Grainger,Populated Place,70.0,FUZZY_GENERAL,"Fuzzy match (score: 80.0), different county",Bolen,Rhea,35.6045,-84.9372,1310517,36.2845,-83.4972,93.25442318868049
808,Bolen,Rhea,1886.0,1888.0,290.0,1313213.0,Ben (historical),Maury,Populated Place,70.0,FUZZY_GENERAL,"Fuzzy match (score: 75.0), different county",Bolen,Rhea,35.6045,-84.9372,1313213,35.6145,-87.0472,118.53242978422585
808,Bolen,Rhea,1886.0,1888.0,28646.0,1277911.0,Bolton,Shelby,Populated Place,70.0,FUZZY_GENERAL,"Fuzzy match (score: 72.72727272727273), different county",Bolen,Rhea,35.6045,-84.9372,1277911,35.1345,-89.9372,283.55722937084107
810,Boles,Clay,,,6221.0,1277901.0,Boles Branch,McNairy,Stream,80.0,NAME_VARIATION,Name variation: boles branch,Boles,Clay,36.5545,-85.5472,1277901,35.1945,-88.5472,192.45550797386608
810,Boles,Clay,,,6425.0,1277902.0,Boles Branch,Overton,Stream,80.0,NAME_VARIATION,Name variation: boles branch,Boles,Clay,36.5545,-85.5472,1277902,36.3345,-85.2972,20.595756747164625
814,Bon Air,Dickson,,,29720.0,1305339.0,Bon Air,White,Populated Place,90.0,FUZZY_GENERAL,"Fuzzy match (score: 100.0), different county",Bon Air,Dickson,36.1345,-87.3972,1305339,35.9245,-85.4672,108.81866389893209
814,Bon Air,Dickson,,,31633.0,1314713.0,Bon Air,Sumner,Populated Place,90.0,FUZZY_GENERAL,"Fuzzy match (score: 100.0), different county",Bon Air,Dickson,36.1345,-87.3972,1314713,36.4645,-86.4672,56.58704125153519
822,Bon Eau,Hardin,1858.0,1861.0,29720.0,1305339.0,Bon Air,White,Populated Place,75.0,FIRST_WORD,"First word match, different county",Bon Eau,Hardin,35.1845,-88.2472,1305339,35.9245,-85.4672,164.42304268416115
822,Bon Eau,Hardin,1858.0,1861.0,31633.0,1314713.0,Bon Air,Sumner,Populated Place,75.0,FIRST_WORD,"First word match, different county",Bon Eau,Hardin,35.1845,-88.2472,1314713,36.4645,-86.4672,133.2900474645124
822,Bon Eau,Hardin,1858.0,1861.0,33739.0,1305340.0,Bon Aqua,Hickman,Populated Place,75.0,FIRST_WORD,"First word match, different county",Bon Eau,Hardin,35.1845,-88.2472,1305340,35.8145,-87.3972,64.66265230485149
879,Box Town,Putnam,,,4467.0,1311818.0,Box Slough,Obion,Gut,75.0,FIRST_WORD,"First word match, different county",Box Town,Putnam,36.1345,-85.4972,1311818,36.3245,-89.1972,206.63527692476654
879,Box Town,Putnam,,,20270.0,1278090.0,Box Hollow,Williamson,Valley,75.0,FIRST_WORD,"First word match, different county",Box Town,Putnam,36.1345,-85.4972,1278090,35.8745,-86.8672,78.65846226013534
879,Box Town,Putnam,,,27236.0,1278091.0,Box Hollow,Humphreys,Valley,75.0,FIRST_WORD,"First word match, different county",Box Town,Putnam,36.1345,-85.4972,1278091,36.0145,-87.6972,123.14297834006977
880,Boxs Station,Humphreys,,,31030.0,1327570.0,Benton Station,Polk,Populated Place,70.0,FUZZY_GENERAL,"Fuzzy match (score: 76.92307692307692), different county",Boxs Station,Humphreys,36.0145,-87.6972,1327570,35.0745,-84.5372,189.15102556541368
880,Boxs Station,Humphreys,,,30499.0,1290982.0,Lees Station,Bledsoe,Populated Place,70.0,FUZZY_GENERAL,"Fuzzy match (score: 75.0), different county",Boxs Station,Humphreys,36.0145,-87.6972,1290982,35.5673,-85.2389,141.20322596066265
880,Boxs Station,Humphreys,,,30702.0,1276544.0,Bean Station,Grainger,Populated Place,70.0,FUZZY_GENERAL,"Fuzzy match (score: 75.0), different county",Boxs Station,Humphreys,36.0145,-87.6972,1276544,36.2845,-83.4972,235.0615165155146
885,Boyces Junction,Hamilton,,,28401.0,1314997.0,East Junction,Shelby,Populated Place,70.0,FUZZY_GENERAL,"Fuzzy match (score: 78.57142857142857), different county",Boyces Junction,Hamilton,35.1245,-85.2972,1314997,35.1345,-89.9372,262.19148834560497
885,Boyces Junction,Hamilton,,,31618.0,1277235.0,Big Boy Junction,Dyer,Populated Place,70.0,FUZZY_GENERAL,"Fuzzy match (score: 77.41935483870968), different county",Boyces Junction,Hamilton,35.1245,-85.2972,1277235,36.0745,-89.3972,239.5009258618316
885,Boyces Junction,Hamilton,,,30629.0,1644650.0,Beacon Junction,Decatur,Populated Place,70.0,FUZZY_GENERAL,"Fuzzy match (score: 73.33333333333334), different county",Boyces Junction,Hamilton,35.1245,-85.2972,1644650,35.5945,-88.1222,162.46581164847717
889,Boyds Landing,Hardin,1867.0,1887.0,8071.0,1305369.0,Boyds Creek,Sevier,Stream,75.0,FIRST_WORD,"First word match, different county",Boyds Landing,Hardin,35.1845,-88.2472,1305369,35.7745,-83.5372,268.110670847175
889,Boyds Landing,Hardin,1867.0,1887.0,28124.0,1314721.0,Boyds Creek,Sevier,Populated Place,75.0,FIRST_WORD,"First word match, different county",Boyds Landing,Hardin,35.1845,-88.2472,1314721,35.7745,-83.5372,268.110670847175
893,Boyles Store,Lincoln,1832.0,1836.0,34228.0,1647310.0,Lewis Store,Coffee,Populated Place,70.0,FUZZY_GENERAL,"Fuzzy match (score: 78.26086956521739), different county",Boyles Store,Lincoln,35.0745,-86.6472,1647310,35.4845,-86.0972,42.012739629597334
893,Boyles Store,Lincoln,1832.0,1836.0,28384.0,1297025.0,Paynes Store,Trousdale,Populated Place,70.0,FUZZY_GENERAL,"Fuzzy match (score: 75.0), different county",Boyles Store,Lincoln,35.0745,-86.6472,1297025,36.3845,-86.1472,94.7627272695416
893,Boyles Store,Lincoln,1832.0,1836.0,29227.0,1300048.0,Roneys Store,Obion,Populated Place,70.0,FUZZY_GENERAL,"Fuzzy match (score: 75.0), different county",Boyles Store,Lincoln,35.0745,-86.6472,1300048,36.3245,-89.1972,167.12684197970475
913,Bradley County,Bradley,,,4173.0,1305386.0,Bradley Lake,Knox,Reservoir,75.0,FIRST_WORD,"First word match, different county",Bradley County,Bradley,35.159,-84.8766,1305386,36.0045,-83.9372,78.73900975670088
913,Bradley County,Bradley,,,12845.0,1278176.0,Bradley Branch,Union,Stream,75.0,FIRST_WORD,"First word match, different county",Bradley County,Bradley,35.159,-84.8766,1278176,36.2645,-83.8872,94.42523724841135
913,Bradley County,Bradley,,,12846.0,1278188.0,Bradley Creek,Rutherford,Stream,75.0,FIRST_WORD,"First word match, different county",Bradley County,Bradley,35.159,-84.8766,1278188,35.8445,-86.3972,97.77424123559527
916,Bradys Rock,Cannon,,,5010.0,1645022.0,Rock Bars,Montgomery,Bar,70.0,FUZZY_GENERAL,"Fuzzy match (score: 80.0), different county",Bradys Rock,Cannon,35.8095,-86.0583,1645022,36.4945,-87.3472,86.08936237695941
916,Bradys Rock,Cannon,,,21845.0,1276424.0,Basin Rock,Cumberland,Pillar,70.0,FUZZY_GENERAL,"Fuzzy match (score: 76.19047619047619), different county",Bradys Rock,Cannon,35.8095,-86.0583,1276424,35.9495,-84.8972,65.72124477521358
916,Bradys Rock,Cannon,,,8879.0,1299727.0,Rock Branch,Roane,Stream,70.0,FUZZY_GENERAL,"Fuzzy match (score: 72.72727272727273), different county",Bradys Rock,Cannon,35.8095,-86.0583,1299727,35.8645,-84.5372,85.29044801839997
923,Bramley,Carroll,1890.0,1903.0,30256.0,1646986.0,Ramsey,Hancock,Populated Place,70.0,FUZZY_GENERAL,"Fuzzy match (score: 76.92307692307692), different county",Bramley,Carroll,35.9795,-88.5972,1646986,36.5145,-83.2472,300.3742510250676
923,Bramley,Carroll,1890.0,1903.0,31592.0,1314635.0,Batley,Anderson,Populated Place,70.0,FUZZY_GENERAL,"Fuzzy match (score: 76.92307692307692), different county",Bramley,Carroll,35.9795,-88.5972,1314635,36.1034,-84.1888,246.4324985093337
923,Bramley,Carroll,1890.0,1903.0,31740.0,1298882.0,Ramsey,Knox,Populated Place,70.0,FUZZY_GENERAL,"Fuzzy match (score: 76.92307692307692), different county",Bramley,Carroll,35.9795,-88.5972,1298882,36.0045,-83.9372,260.5065586549621
925,Branch,Tipton,1830.0,1835.0,7097.0,1282878.0,Dry Branch,Tipton,Stream,75.0,FUZZY_WITH_COUNTY,Fuzzy match in same county (score: 75.0),Branch,Tipton,35.4945,-89.7972,1282878,35.4945,-89.7972,0.0
925,Branch,Tipton,1830.0,1835.0,11890.0,1277237.0,Big Branch,Tipton,Stream,75.0,FUZZY_WITH_COUNTY,Fuzzy match in same county (score: 75.0),Branch,Tipton,35.4945,-89.7972,1277237,35.4945,-89.7972,0.0
925,Branch,Tipton,1830.0,1835.0,17134.0,1278227.0,Branch Islands,Maury,Island,75.0,FIRST_WORD,"First word match, different county",Branch,Tipton,35.4945,-89.7972,1278227,35.6145,-87.0472,154.8089907257157
928,Brandon,Hardin,1899.0,1904.0,4253.0,1308795.0,Brandon Spring,Stewart,Spring,80.0,NAME_VARIATION,Name variation: brandon spring,Brandon,Hardin,35.1845,-88.2472,1308795,36.5045,-87.8472,93.91990984280288
928,Brandon,Hardin,1899.0,1904.0,18867.0,1305393.0,Brandon Hollow,Moore,Valley,80.0,NAME_VARIATION,Name variation: brandon hollow,Brandon,Hardin,35.1845,-88.2472,1305393,35.2645,-86.3672,106.2601948242711
936,Brattons,Smith,1837.0,1842.0,33672.0,1314728.0,Brayton,Bledsoe,Populated Place,70.0,FUZZY_GENERAL,"Fuzzy match (score: 80.0), different county",Brattons,Smith,36.2145,-85.9472,1314728,35.5673,-85.2389,59.76541738464971
936,Brattons,Smith,1837.0,1842.0,32779.0,1278261.0,Braytown,Anderson,Populated Place,70.0,FUZZY_GENERAL,"Fuzzy match (score: 75.0), different county",Brattons,Smith,36.2145,-85.9472,1278261,36.1034,-84.1888,98.39656873967702
936,Brattons,Smith,1837.0,1842.0,33740.0,1305402.0,Brattontown,Macon,Populated Place,70.0,FUZZY_GENERAL,"Fuzzy match (score: 73.6842105263158), different county",Brattons,Smith,36.2145,-85.9472,1305402,36.5345,-85.9972,22.285517711856176
959,Brevards,Smith,1830.0,1837.0,439.0,1644685.0,Brevards Ferry (historical),Benton,Crossing,75.0,FIRST_WORD,"First word match, different county",Brevards,Smith,36.2145,-85.9472,1644685,36.0773,-88.0589,118.20599495675502
959,Brevards,Smith,1830.0,1837.0,439.0,1644685.0,Brevards Ferry (historical),Benton,Crossing,75.0,FIRST_WORD,"First word match, different county",Brevards,Smith,36.2145,-85.9472,1644685,36.0145,-87.6972,98.65597980157317
959,Brevards,Smith,1830.0,1837.0,1494.0,1644685.0,Brevards Ferry (historical),Humphreys,Crossing,75.0,FIRST_WORD,"First word match, different county",Brevards,Smith,36.2145,-85.9472,1644685,36.0773,-88.0589,118.20599495675502
959,Brevards,Smith,1830.0,1837.0,1494.0,1644685.0,Brevards Ferry (historical),Humphreys,Crossing,75.0,FIRST_WORD,"First word match, different county",Brevards,Smith,36.2145,-85.9472,1644685,36.0145,-87.6972,98.65597980157317
964,Brunsons,Stewart,1829.0,1839.0,28903.0,1314754.0,Bryson,Giles,Populated Place,70.0,FUZZY_GENERAL,"Fuzzy match (score: 71.42857142857143), different county",Brunsons,Stewart,36.5045,-87.8472,1314754,35.1845,-87.0472,101.62011188009642
964,Brunsons,Stewart,1829.0,1839.0,29680.0,1307513.0,Bryson,McMinn,Populated Place,70.0,FUZZY_GENERAL,"Fuzzy match (score: 71.42857142857143), different county",Brunsons,Stewart,36.5045,-87.8472,1307513,35.4345,-84.5872,196.71542479677473
964,Brunsons,Stewart,1829.0,1839.0,29834.0,1314745.0,Browns,Macon,Populated Place,70.0,FUZZY_GENERAL,"Fuzzy match (score: 71.42857142857143), different county",Brunsons,Stewart,36.5045,-87.8472,1314745,36.5345,-85.9972,102.75089478055251
975,Brick Academy,Lawrence,,,31460.0,1305408.0,Brick Mill,Blount,Populated Place,75.0,FIRST_WORD,"First word match, different county",Brick Academy,Lawrence,35.2145,-87.3972,1305408,35.6856,-83.9207,198.3641825248747
975,Brick Academy,Lawrence,,,31494.0,1647320.0,Brick Church,Giles,Populated Place,75.0,FIRST_WORD,"First word match, different county",Brick Academy,Lawrence,35.2145,-87.3972,1647320,35.1845,-87.0472,19.870491255628366
1005,Broad,Cocke,,,13178.0,1327708.0,Broad Branch,Greene,Stream,80.0,NAME_VARIATION,Name variation: broad branch,Broad,Cocke,35.9345,-83.134,1327708,36.1545,-82.8472,22.08693428602811
1005,Broad,Cocke,,,13178.0,1327708.0,Broad Branch,Greene,Stream,80.0,NAME_VARIATION,Name variation: broad branch,Broad,Cocke,35.9345,-83.134,1327708,36.1045,-82.3472,45.51390806317678
1005,Broad,Cocke,,,13179.0,1327708.0,Broad Branch,Unicoi,Stream,80.0,NAME_VARIATION,Name variation: broad branch,Broad,Cocke,35.9345,-83.134,1327708,36.1545,-82.8472,22.08693428602811
1005,Broad,Cocke,,,13179.0,1327708.0,Broad Branch,Unicoi,Stream,80.0,NAME_VARIATION,Name variation: broad branch,Broad,Cocke,35.9345,-83.134,1327708,36.1045,-82.3472,45.51390806317678
1005,Broad,Cocke,,,27381.0,1278432.0,Broad Hollow,Humphreys,Valley,80.0,NAME_VARIATION,Name variation: broad hollow,Broad,Cocke,35.9345,-83.134,1278432,36.0145,-87.6972,255.2069918064232
1008,Broad Valley,White,,,25696.0,1277847.0,Board Valley,White,Valley,96.66666666666666,FUZZY_GENERAL,"Fuzzy match (score: 91.66666666666666), same county",Broad Valley,White,35.9245,-85.4672,1277847,36.1345,-85.4972,14.607009700265541
1008,Broad Valley,White,,,25696.0,1277847.0,Board Valley,White,Valley,96.66666666666666,FUZZY_GENERAL,"Fuzzy match (score: 91.66666666666666), same county",Broad Valley,White,35.9245,-85.4672,1277847,35.9245,-85.4672,0.0
1008,Broad Valley,White,,,33321.0,1305327.0,Board Valley,White,Populated Place,96.66666666666666,FUZZY_GENERAL,"Fuzzy match (score: 91.66666666666666), same county",Broad Valley,White,35.9245,-85.4672,1305327,35.9245,-85.4672,0.0
1031,Bull Run Station,Union,,,8433.0,1305515.0,Bull Run,Moore,Stream,80.0,NAME_VARIATION,Name variation: bull run,Bull Run Station,Union,36.2645,-83.8872,1305515,35.2645,-86.3672,155.26244753920813
1031,Bull Run Station,Union,,,10881.0,1305516.0,Bull Run,Davidson,Stream,80.0,NAME_VARIATION,Name variation: bull run,Bull Run Station,Union,36.2645,-83.8872,1305516,36.1667,-86.7844,161.64806075525578
1031,Bull Run Station,Union,,,10881.0,1305516.0,Bull Run,Davidson,Stream,80.0,NAME_VARIATION,Name variation: bull run,Bull Run Station,Union,36.2645,-83.8872,1305516,36.2545,-87.0689,177.26688115183416
1031,Bull Run Station,Union,,,10882.0,1305516.0,Bull Run,Cheatham,Stream,80.0,NAME_VARIATION,Name variation: bull run,Bull Run Station,Union,36.2645,-83.8872,1305516,36.1667,-86.7844,161.64806075525578
1031,Bull Run Station,Union,,,10882.0,1305516.0,Bull Run,Cheatham,Stream,80.0,NAME_VARIATION,Name variation: bull run,Bull Run Station,Union,36.2645,-83.8872,1305516,36.2545,-87.0689,177.26688115183416
1033,Brooks,Sumner,1902.0,1906.0,18762.0,1278483.0,Brooks Gap,Scott,Gap,80.0,NAME_VARIATION,Name variation: brooks gap,Brooks,Sumner,36.4645,-86.4672,1278483,36.4745,-84.5872,104.46553431860225
1033,Brooks,Sumner,1902.0,1906.0,26037.0,1278482.0,Brooks Gap,Anderson,Gap,80.0,NAME_VARIATION,Name variation: brooks gap,Brooks,Sumner,36.4645,-86.4672,1278482,36.1034,-84.1888,129.33114071788032
1033,Brooks,Sumner,1902.0,1906.0,21353.0,1278490.0,Brooks Point,Coffee,Cape,80.0,NAME_VARIATION,Name variation: brooks point,Brooks,Sumner,36.4645,-86.4672,1278490,35.4845,-86.0972,70.80578947453259
1036,Bear Wallow,Cannon,,,17286.0,330500.0,Bear Wallow,Polk,Valley,90.0,FUZZY_GENERAL,"Fuzzy match (score: 100.0), different county",Bear Wallow,Cannon,35.8095,-86.0583,330500,35.0745,-84.5372,99.55494329098006
1036,Bear Wallow,Cannon,,,31117.0,1314638.0,Bear Wallow,Marshall,Populated Place,90.0,FUZZY_GENERAL,"Fuzzy match (score: 100.0), different county",Bear Wallow,Cannon,35.8095,-86.0583,1314638,35.4545,-86.7972,48.204789052054764
1040,Branchville,Hawkins,,,28902.0,1314724.0,Branchville,Bedford,Populated Place,90.0,FUZZY_GENERAL,"Fuzzy match (score: 100.0), different county",Branchville,Hawkins,36.4345,-82.9472,1314724,35.5045,-86.4714,207.27924688277733
1040,Branchville,Hawkins,,,32582.0,1278229.0,Branchville,Franklin,Populated Place,90.0,FUZZY_GENERAL,"Fuzzy match (score: 100.0), different county",Branchville,Hawkins,36.4345,-82.9472,1278229,35.1545,-86.0972,197.44639351879243
1044,Brown,Cannon,1889.0,1890.0,29834.0,1314745.0,Browns,Macon,Populated Place,80.9090909090909,FUZZY_GENERAL,"Fuzzy match (score: 90.9090909090909), different county",Brown,Cannon,35.8095,-86.0583,1314745,36.5345,-85.9972,50.211540351979494
1044,Brown,Cannon,1889.0,1890.0,32156.0,1314744.0,Browns,Cocke,Populated Place,80.9090909090909,FUZZY_GENERAL,"Fuzzy match (score: 90.9090909090909), different county",Brown,Cannon,35.8095,-86.0583,1314744,35.9345,-83.134,163.95804378095664
1045,Brown,Maury,,,29834.0,1314745.0,Browns,Macon,Populated Place,80.9090909090909,FUZZY_GENERAL,"Fuzzy match (score: 90.9090909090909), different county",Brown,Maury,35.6145,-87.0472,1314745,36.5345,-85.9972,86.48480080616947
1045,Brown,Maury,,,32156.0,1314744.0,Browns,Cocke,Populated Place,80.9090909090909,FUZZY_GENERAL,"Fuzzy match (score: 90.9090909090909), different county",Brown,Maury,35.6145,-87.0472,1314744,35.9345,-83.134,220.4723512473226
1059,Browns Cove,Franklin,1829.0,1830.0,5827.0,1278622.0,Browns Creek,Bledsoe,Stream,75.0,FIRST_WORD,"First word match, different county",Browns Cove,Franklin,35.1545,-86.0972,1278622,35.5673,-85.2389,56.149775162875
1059,Browns Cove,Franklin,1829.0,1830.0,8188.0,1278623.0,Browns Creek,Henderson,Stream,75.0,FIRST_WORD,"First word match, different county",Browns Cove,Franklin,35.1545,-86.0972,1278623,35.6645,-88.3972,134.2327449687879
1059,Browns Cove,Franklin,1829.0,1830.0,11854.0,1278621.0,Browns Creek,Haywood,Stream,75.0,FIRST_WORD,"First word match, different county",Browns Cove,Franklin,35.1545,-86.0972,1278621,35.5645,-89.2472,179.74583918025576
1064,Browns Station,Davidson,,,2501.0,1278630.0,Browns Lake,Davidson,Reservoir,90.0,FIRST_WORD,"First word match with suffix 'lake', same county",Browns Station,Davidson,36.1667,-86.7844,1278630,36.5145,-86.8672,24.470027122123504
1064,Browns Station,Davidson,,,2501.0,1278630.0,Browns Lake,Davidson,Reservoir,90.0,FIRST_WORD,"First word match with suffix 'lake', same county",Browns Station,Davidson,36.1667,-86.7844,1278630,36.1667,-86.7844,0.0
1064,Browns Station,Davidson,,,14351.0,1278624.0,Browns Creek,Davidson,Stream,90.0,FIRST_WORD,"First word match with suffix 'creek', same county",Browns Station,Davidson,36.1667,-86.7844,1278624,36.1667,-86.7844,0.0
1073,Browntown,Cannon,,,1491.0,1302708.0,Browntown (historical),Wayne,Populated Place,90.0,FUZZY_GENERAL,"Fuzzy match (score: 100.0), different county",Browntown,Cannon,35.8095,-86.0583,1302708,35.3145,-87.7472,100.90480303171681
1073,Browntown,Cannon,,,29408.0,1278635.0,Browntown,Cumberland,Populated Place,90.0,FUZZY_GENERAL,"Fuzzy match (score: 100.0), different county",Browntown,Cannon,35.8095,-86.0583,1278635,35.9495,-84.8972,65.72124477521358
1114,Buchanans Station,Davidson,,,30702.0,1276544.0,Bean Station,Grainger,Populated Place,70.0,FUZZY_GENERAL,"Fuzzy match (score: 75.86206896551724), different county",Buchanans Station,Davidson,36.1667,-86.7844,1276544,36.2845,-83.4972,183.40290979774133
1114,Buchanans Station,Davidson,,,26228.0,1278785.0,Buchannan Mountain,Blount,Summit,70.0,FUZZY_GENERAL,"Fuzzy match (score: 74.28571428571429), different county",Buchanans Station,Davidson,36.1667,-86.7844,1278785,35.6856,-83.9207,163.63903782501654
1114,Buchanans Station,Davidson,,,27866.0,1278757.0,Bryant Station,Maury,Populated Place,70.0,FUZZY_GENERAL,"Fuzzy match (score: 70.96774193548387), different county",Buchanans Station,Davidson,36.1667,-86.7844,1278757,35.6145,-87.0472,40.89340320382147
1117,Buck Lodge,Sumner,1878.0,1910.0,19099.0,1278837.0,Buck Ridge,Johnson,Ridge,75.0,FIRST_WORD,"First word match, different county",Buck Lodge,Sumner,36.4645,-86.4672,1278837,36.4545,-81.8472,256.7264178824641
1117,Buck Lodge,Sumner,1878.0,1910.0,20688.0,1278836.0,Buck Ridge,Johnson,Ridge,75.0,FIRST_WORD,"First word match, different county",Buck Lodge,Sumner,36.4645,-86.4672,1278836,36.4545,-81.8472,256.7264178824641
1117,Buck Lodge,Sumner,1878.0,1910.0,20831.0,1278835.0,Buck Ridge,Morgan,Ridge,75.0,FIRST_WORD,"First word match, different county",Buck Lodge,Sumner,36.4645,-86.4672,1278835,36.1145,-84.6472,104.20845190611331
1145,Cameron,White,1881.0,1906.0,9250.0,1279364.0,Cameron Branch,Cocke,Stream,80.0,NAME_VARIATION,Name variation: cameron branch,Cameron,White,35.9245,-85.4672,1279364,35.9345,-83.134,130.5437183907941
1145,Cameron,White,1881.0,1906.0,23459.0,1279366.0,Cameron Hill,Hamilton,Summit,80.0,NAME_VARIATION,Name variation: cameron hill,Cameron,White,35.9245,-85.4672,1279366,35.1245,-85.2972,56.09864302722479
1145,Cameron,White,1881.0,1906.0,20241.0,1279367.0,Cameron Hollow,Sevier,Valley,80.0,NAME_VARIATION,Name variation: cameron hollow,Cameron,White,35.9245,-85.4672,1279367,35.7745,-83.5372,108.58863348051632
1154,Camp Four,Grundy,,,2535.0,1279410.0,Camp Slough,Lauderdale,Lake,75.0,FIRST_WORD,"First word match, different county",Camp Four,Grundy,35.3845,-85.6972,1279410,35.7745,-89.6472,223.59474668727944
1154,Camp Four,Grundy,,,28657.0,1305632.0,Camp Jordan,Hamilton,Populated Place,75.0,FIRST_WORD,"First word match, different county",Camp Four,Grundy,35.3845,-85.6972,1305632,35.1245,-85.2972,28.84707089217726
1154,Camp Four,Grundy,,,29824.0,1305625.0,Camp Ground,Fentress,Populated Place,75.0,FIRST_WORD,"First word match, different county",Camp Four,Grundy,35.3845,-85.6972,1305625,36.3845,-84.9472,80.85341179204995
1162,Coats Town,,,,697.0,1307442.0,Cowanstown (historical),Johnson,Populated Place,80.0,FUZZY_GENERAL,Fuzzy match (score: 80.0),Coats Town,,,,1307442,36.4545,-81.8472,
1162,Coats Town,,,,8825.0,1280817.0,Coats Branch,Weakley,Stream,80.0,FIRST_WORD,First word match with suffix 'branch',Coats Town,,,,1280817,36.3345,-88.7172,
1174,Camperton,Wilson,,,28855.0,1286694.0,Hampton,Carter,Populated Place,70.0,FUZZY_GENERAL,"Fuzzy match (score: 75.0), different county",Camperton,Wilson,36.1745,-86.2972,1286694,36.2989,-82.154,231.05461675848304
1174,Camperton,Wilson,,,31017.0,1281049.0,Compton,Rutherford,Populated Place,70.0,FUZZY_GENERAL,"Fuzzy match (score: 75.0), different county",Camperton,Wilson,36.1745,-86.2972,1281049,35.8445,-86.3972,23.477266935977216
1174,Camperton,Wilson,,,32287.0,1305685.0,Carlton,Blount,Populated Place,70.0,FUZZY_GENERAL,"Fuzzy match (score: 75.0), different county",Camperton,Wilson,36.1745,-86.2972,1305685,35.6856,-83.9207,137.18680174380572
1335,Anglea,Sumner,,,632.0,1311199.0,Alena (historical),Jefferson,Populated Place,70.0,FUZZY_GENERAL,"Fuzzy match (score: 72.72727272727273), different county",Anglea,Sumner,36.4645,-86.4672,1311199,36.0045,-83.4972,168.54774945521424
1335,Anglea,Sumner,,,33040.0,1314780.0,Cagle,Sequatchie,Populated Place,70.0,FUZZY_GENERAL,"Fuzzy match (score: 72.72727272727273), different county",Anglea,Sumner,36.4645,-86.4672,1314780,35.4045,-85.3872,94.94879190610844
1335,Anglea,Sumner,,,33494.0,1640255.0,Range,Carter,Populated Place,70.0,FUZZY_GENERAL,"Fuzzy match (score: 72.72727272727273), different county",Anglea,Sumner,36.4645,-86.4672,1640255,36.2989,-82.154,240.19289607078255
1571,Allentown,Carter,1890.0,1900.0,27604.0,1639803.0,Haletown,Marion,Populated Place,72.35294117647058,FUZZY_GENERAL,"Fuzzy match (score: 82.35294117647058), different county",Allentown,Carter,36.2989,-82.154,1639803,35.1145,-85.6472,212.37967822738446
1571,Allentown,Carter,1890.0,1900.0,27604.0,1639803.0,Haletown,Marion,Populated Place,72.35294117647058,FUZZY_GENERAL,"Fuzzy match (score: 82.35294117647058), different county",Allentown,Carter,36.2989,-82.154,1639803,35.1145,-85.6472,212.37967822738446
1571,Allentown,Carter,1890.0,1900.0,30173.0,1647797.0,Balltown,McMinn,Populated Place,72.35294117647058,FUZZY_GENERAL,"Fuzzy match (score: 82.35294117647058), different county",Allentown,Carter,36.2989,-82.154,1647797,35.4345,-84.5872,148.7586147189713
1571,Allentown,Carter,1890.0,1900.0,30173.0,1647797.0,Balltown,McMinn,Populated Place,72.35294117647058,FUZZY_GENERAL,"Fuzzy match (score: 82.35294117647058), different county",Allentown,Carter,36.2989,-82.154,1647797,35.4345,-84.5872,148.7586147189713
1571,Allentown,Carter,1890.0,1900.0,30970.0,1315181.0,Halltown,Trousdale,Populated Place,72.35294117647058,FUZZY_GENERAL,"Fuzzy match (score: 82.35294117647058), different county",Allentown,Carter,36.2989,-82.154,1315181,36.3845,-86.1472,222.31601173416783
1571,Allentown,Carter,1890.0,1900.0,30970.0,1315181.0,Halltown,Trousdale,Populated Place,72.35294117647058,FUZZY_GENERAL,"Fuzzy match (score: 82.35294117647058), different county",Allentown,Carter,36.2989,-82.154,1315181,36.3845,-86.1472,222.31601173416783
1585,Baker-Brown-Town,,,,1491.0,1302708.0,Browntown (historical),Wayne,Populated Place,72.0,FUZZY_GENERAL,Fuzzy match (score: 72.0),Baker-Brown-Town,,,,1302708,35.3145,-87.7472,
1585,Baker-Brown-Town,,,,29408.0,1278635.0,Browntown,Cumberland,Populated Place,72.0,FUZZY_GENERAL,Fuzzy match (score: 72.0),Baker-Brown-Town,,,,1278635,35.9495,-84.8972,
1585,Baker-Brown-Town,,,,29757.0,1276197.0,Bakertown,Moore,Populated Place,72.0,FUZZY_GENERAL,Fuzzy match (score: 72.0),Baker-Brown-Town,,,,1276197,35.2645,-86.3672,
2377,Arnold,Bedford,,,5531.0,1327471.0,Arnold Branch,Johnson,Stream,80.0,NAME_VARIATION,Name variation: arnold branch,Arnold,Bedford,35.5045,-86.4714,1327471,36.4545,-81.8472,266.73660019310154
2377,Arnold,Bedford,,,5926.0,1327472.0,Arnold Branch,Johnson,Stream,80.0,NAME_VARIATION,Name variation: arnold branch,Arnold,Bedford,35.5045,-86.4714,1327472,36.4545,-81.8472,266.73660019310154
2377,Arnold,Bedford,,,7407.0,1275877.0,Arnold Branch,Decatur,Stream,80.0,NAME_VARIATION,Name variation: arnold branch,Arnold,Bedford,35.5045,-86.4714,1275877,35.5945,-88.1222,93.01289436558139
2387,Ash Hill,Williamson,,,19600.0,1275930.0,Ash Hollow,Hickman,Valley,75.0,FIRST_WORD,"First word match, different county",Ash Hill,Williamson,35.8745,-86.8672,1275930,35.8145,-87.3972,29.97396740584593
2387,Ash Hill,Williamson,,,11040.0,1304881.0,Ash Slough,Shelby,Stream,75.0,FIRST_WORD,"First word match, different county",Ash Hill,Williamson,35.8745,-86.8672,1304881,35.1345,-89.9372,180.08970586673897
2387,Ash Hill,Williamson,,,15775.0,1275924.0,Ash Bayou,Lauderdale,Stream,75.0,FIRST_WORD,"First word match, different county",Ash Hill,Williamson,35.8745,-86.8672,1275924,35.7745,-89.6472,155.89814819377867
2393,Asbury,Montgomery,,1858.0,28287.0,1327473.0,Asbury,Washington,Populated Place,90.0,FUZZY_GENERAL,"Fuzzy match (score: 100.0), different county",Asbury,Montgomery,36.4945,-87.3472,1327473,36.2945,-82.5072,269.5275104828971
2393,Asbury,Montgomery,,1858.0,28598.0,1314604.0,Asbury,Stewart,Populated Place,90.0,FUZZY_GENERAL,"Fuzzy match (score: 100.0), different county",Asbury,Montgomery,36.4945,-87.3472,1314604,36.5045,-87.8472,27.781026356381158
2393,Asbury,Montgomery,,1858.0,30494.0,1314603.0,Asbury,Coffee,Populated Place,90.0,FUZZY_GENERAL,"Fuzzy match (score: 100.0), different county",Asbury,Montgomery,36.4945,-87.3472,1314603,35.4845,-86.0972,98.76265118402132
2401,Ash Grove,Williamson,,,11040.0,1304881.0,Ash Slough,Shelby,Stream,75.0,FIRST_WORD,"First word match, different county",Ash Grove,Williamson,35.8745,-86.8672,1304881,35.1345,-89.9372,180.08970586673897
2401,Ash Grove,Williamson,,,15775.0,1275924.0,Ash Bayou,Lauderdale,Stream,75.0,FIRST_WORD,"First word match, different county",Ash Grove,Williamson,35.8745,-86.8672,1275924,35.7745,-89.6472,155.89814819377867
2401,Ash Grove,Williamson,,,19600.0,1275930.0,Ash Hollow,Hickman,Valley,75.0,FIRST_WORD,"First word match, different county",Ash Grove,Williamson,35.8745,-86.8672,1275930,35.8145,-87.3972,29.97396740584593
2412,Aster,Bradley,,,1260.0,1303069.0,Vater (historical),Lawrence,Populated Place,70.0,FUZZY_GENERAL,"Fuzzy match (score: 80.0), different county",Aster,Bradley,35.159,-84.8766,1303069,35.2145,-87.3972,142.3910186304057
2412,Aster,Bradley,,,32800.0,1308090.0,Eastover,Blount,Populated Place,70.0,FUZZY_GENERAL,"Fuzzy match (score: 76.92307692307692), different county",Aster,Bradley,35.159,-84.8766,1308090,35.6856,-83.9207,64.96932094340937
2412,Aster,Bradley,,,651.0,1313626.0,Jester (historical),Shelby,Populated Place,70.0,FUZZY_GENERAL,"Fuzzy match (score: 72.72727272727273), different county",Aster,Bradley,35.159,-84.8766,1313626,35.1345,-89.9372,285.8967373901607
2492,Bakers Iron Works,Campbell,,1835.0,30997.0,1304935.0,Bakersworks,Dickson,Populated Place,70.0,FUZZY_GENERAL,"Fuzzy match (score: 78.57142857142857), different county",Bakers Iron Works,Campbell,36.3989,-84.1513,1304935,36.1345,-87.3972,181.74552456390464
2492,Bakers Iron Works,Campbell,,1835.0,14500.0,1276193.0,Bakers Fork,Davidson,Stream,70.0,FUZZY_GENERAL,"Fuzzy match (score: 71.42857142857143), different county",Bakers Iron Works,Campbell,36.3989,-84.1513,1276193,36.1667,-86.7844,147.5338435252783
2500,Bernard,Hickman,,,19278.0,1277045.0,Bernard Hollow,Hawkins,Valley,80.0,NAME_VARIATION,Name variation: bernard hollow,Bernard,Hickman,35.8145,-87.3972,1277045,36.4345,-82.9472,252.0098592592225
2500,Bernard,Hickman,,,19278.0,1277045.0,Bernard Hollow,Hawkins,Valley,80.0,NAME_VARIATION,Name variation: bernard hollow,Bernard,Hickman,35.8145,-87.3972,1277045,36.1545,-82.8472,255.4585965686126
2500,Bernard,Hickman,,,19279.0,1277045.0,Bernard Hollow,Greene,Valley,80.0,NAME_VARIATION,Name variation: bernard hollow,Bernard,Hickman,35.8145,-87.3972,1277045,36.4345,-82.9472,252.0098592592225
2500,Bernard,Hickman,,,19279.0,1277045.0,Bernard Hollow,Greene,Valley,80.0,NAME_VARIATION,Name variation: bernard hollow,Bernard,Hickman,35.8145,-87.3972,1277045,36.1545,-82.8472,255.4585965686126
2559,Buhler,Wilson,1883.0,1899.0,33821.0,1305567.0,Butler,Johnson,Populated Place,73.33333333333334,FUZZY_GENERAL,"Fuzzy match (score: 83.33333333333334), different county",Buhler,Wilson,36.1745,-86.2972,1305567,36.4545,-81.8472,248.4959994817967
2559,Buhler,Wilson,1883.0,1899.0,33821.0,1305567.0,Butler,Johnson,Populated Place,73.33333333333334,FUZZY_GENERAL,"Fuzzy match (score: 83.33333333333334), different county",Buhler,Wilson,36.1745,-86.2972,1305567,36.2989,-82.154,231.05461675848304
2559,Buhler,Wilson,1883.0,1899.0,33822.0,1305567.0,Butler,Carter,Populated Place,73.33333333333334,FUZZY_GENERAL,"Fuzzy match (score: 83.33333333333334), different county",Buhler,Wilson,36.1745,-86.2972,1305567,36.4545,-81.8472,248.4959994817967
2559,Buhler,Wilson,1883.0,1899.0,33822.0,1305567.0,Butler,Carter,Populated Place,73.33333333333334,FUZZY_GENERAL,"Fuzzy match (score: 83.33333333333334), different county",Buhler,Wilson,36.1745,-86.2972,1305567,36.2989,-82.154,231.05461675848304
4920,Holly Plains,Robertson,,,30528.0,1328463.0,Holly Springs,Monroe,Populated Place,75.0,FIRST_WORD,"First word match, different county",Holly Plains,Robertson,36.5145,-86.8672,1328463,35.4445,-84.2372,164.5887781996324
4920,Holly Plains,Robertson,,,30661.0,1288112.0,Holly Springs,Overton,Populated Place,75.0,FIRST_WORD,"First word match, different county",Holly Plains,Robertson,36.5145,-86.8672,1288112,36.3345,-85.2972,88.17051462830501
4920,Holly Plains,Robertson,,,2979.0,1288109.0,Holly Spring,Marion,Spring,75.0,FIRST_WORD,"First word match, different county",Holly Plains,Robertson,36.5145,-86.8672,1288109,35.1145,-85.6472,118.44969013993905
10566,Walnut Hill,Hawkins,1866.0,1894.0,31491.0,1273738.0,Walnut Hill,Sullivan,Populated Place,90.0,FUZZY_GENERAL,"Fuzzy match (score: 100.0), different county",Walnut Hill,Hawkins,36.4345,-82.9472,1273738,36.5145,-82.2872,37.085692096143354
10566,Walnut Hill,Hawkins,1866.0,1894.0,32869.0,1273737.0,Walnut Hill,Roane,Populated Place,90.0,FUZZY_GENERAL,"Fuzzy match (score: 100.0), different county",Walnut Hill,Hawkins,36.4345,-82.9472,1273737,35.8645,-84.5372,97.06210932335287
10566,Walnut Hill,Hawkins,1866.0,1894.0,33374.0,1273736.0,Walnut Hill,Crockett,Populated Place,90.0,FUZZY_GENERAL,"Fuzzy match (score: 100.0), different county",Walnut Hill,Hawkins,36.4345,-82.9472,1273736,35.8345,-89.0972,345.6386244173393
10686,Webster Furnace,Montgomery,,,6179.0,1304431.0,Webster Branch,Lewis,Stream,75.0,FIRST_WORD,"First word match, different county",Webster Furnace,Montgomery,36.4945,-87.3472,1304431,35.4845,-87.4972,70.29059885077716
10686,Webster Furnace,Montgomery,,,9670.0,1304432.0,Webster Branch,Jackson,Stream,75.0,FIRST_WORD,"First word match, different county",Webster Furnace,Montgomery,36.4945,-87.3472,1304432,36.3545,-85.6472,95.01022507534867
10686,Webster Furnace,Montgomery,,,12223.0,1274050.0,Webster Branch,Roane,Stream,75.0,FIRST_WORD,"First word match, different county",Webster Furnace,Montgomery,36.4945,-87.3472,1274050,35.8645,-84.5372,162.64989848404764
10691,Welch Station,Cumberland,,,7706.0,1274063.0,Welch Branch,Hardin,Stream,75.0,FIRST_WORD,"First word match, different county",Welch Station,Cumberland,35.9495,-84.8972,1274063,35.1845,-88.2472,195.5585036126166
10691,Welch Station,Cumberland,,,10209.0,1274064.0,Welch Branch,Trousdale,Stream,75.0,FIRST_WORD,"First word match, different county",Welch Station,Cumberland,35.9495,-84.8972,1274064,36.3845,-86.1472,75.92979947357625
10691,Welch Station,Cumberland,,,11954.0,1304436.0,Welch Branch,Sequatchie,Stream,75.0,FIRST_WORD,"First word match, different county",Welch Station,Cumberland,35.9495,-84.8972,1304436,35.4045,-85.3872,46.632118313184414
10698,Well Grove,Blount,,,15661.0,1274089.0,Well Branch,Rhea,Stream,75.0,FIRST_WORD,"First word match, different county",Well Grove,Blount,35.6856,-83.9207,1274089,35.6045,-84.9372,57.35231817312433
10698,Well Grove,Blount,,,17352.0,1307302.0,Well Hollow,Lewis,Valley,75.0,FIRST_WORD,"First word match, different county",Well Grove,Blount,35.6856,-83.9207,1307302,35.4845,-87.4972,201.4456068478424
10698,Well Grove,Blount,,,17978.0,1274093.0,Well Hollow,Humphreys,Valley,75.0,FIRST_WORD,"First word match, different county",Well Grove,Blount,35.6856,-83.9207,1274093,36.0145,-87.6972,212.7148966798218
11217,Abner,Lawrence,,,29223.0,1308126.0,Lanier,Blount,Populated Place,70.0,FUZZY_GENERAL,"Fuzzy match (score: 72.72727272727273), different county",Abner,Lawrence,35.2145,-87.3972,1308126,35.6856,-83.9207,198.3641825248747
11217,Abner,Lawrence,,,30107.0,1328174.0,Farner,Polk,Populated Place,70.0,FUZZY_GENERAL,"Fuzzy match (score: 72.72727272727273), different county",Abner,Lawrence,35.2145,-87.3972,1328174,35.0745,-84.5372,161.87734565920076
11217,Abner,Lawrence,,,30877.0,1328246.0,Garber,Washington,Populated Place,70.0,FUZZY_GENERAL,"Fuzzy match (score: 72.72727272727273), different county",Abner,Lawrence,35.2145,-87.3972,1328246,36.2945,-82.5072,284.1408537308905
11223,Albion View,Hamilton,,1915.0,32022.0,1292380.0,Lyons View,Knox,Populated Place,70.0,FUZZY_GENERAL,"Fuzzy match (score: 76.19047619047619), different county",Albion View,Hamilton,35.1245,-85.2972,1292380,36.0045,-83.9372,97.67562732561329
11223,Albion View,Hamilton,,1915.0,30475.0,1315434.0,Longview,Bedford,Populated Place,70.0,FUZZY_GENERAL,"Fuzzy match (score: 73.6842105263158), different county",Albion View,Hamilton,35.1245,-85.2972,1315434,35.5045,-86.4714,71.2210555590277
11223,Albion View,Hamilton,,1915.0,28340.0,1312843.0,Harbor View,Wilson,Populated Place,70.0,FUZZY_GENERAL,"Fuzzy match (score: 72.72727272727273), different county",Albion View,Hamilton,35.1245,-85.2972,1312843,36.1745,-86.2972,91.74020735595874
11233,Andrews Chapel,McMinn,,,16265.0,1304840.0,Andrews Creek,Cannon,Stream,75.0,FIRST_WORD,"First word match, different county",Andrews Chapel,McMinn,35.4345,-84.5872,1304840,35.8095,-86.0583,86.5950035117342
11233,Andrews Chapel,McMinn,,,16265.0,1304840.0,Andrews Creek,Cannon,Stream,75.0,FIRST_WORD,"First word match, different county",Andrews Chapel,McMinn,35.4345,-84.5872,1304840,35.8445,-86.3972,105.51393973829374
11233,Andrews Chapel,McMinn,,,16265.0,1304840.0,Andrews Creek,Cannon,Stream,75.0,FIRST_WORD,"First word match, different county",Andrews Chapel,McMinn,35.4345,-84.5872,1304840,35.8095,-86.0583,86.5950035117342
11233,Andrews Chapel,McMinn,,,16265.0,1304840.0,Andrews Creek,Cannon,Stream,75.0,FIRST_WORD,"First word match, different county",Andrews Chapel,McMinn,35.4345,-84.5872,1304840,35.8445,-86.3972,105.51393973829374
11233,Andrews Chapel,McMinn,,,16266.0,1304840.0,Andrews Creek,Rutherford,Stream,75.0,FIRST_WORD,"First word match, different county",Andrews Chapel,McMinn,35.4345,-84.5872,1304840,35.8095,-86.0583,86.5950035117342
11233,Andrews Chapel,McMinn,,,16266.0,1304840.0,Andrews Creek,Rutherford,Stream,75.0,FIRST_WORD,"First word match, different county",Andrews Chapel,McMinn,35.4345,-84.5872,1304840,35.8445,-86.3972,105.51393973829374
11233,Andrews Chapel,McMinn,,,16266.0,1304840.0,Andrews Creek,Rutherford,Stream,75.0,FIRST_WORD,"First word match, different county",Andrews Chapel,McMinn,35.4345,-84.5872,1304840,35.8095,-86.0583,86.5950035117342
11233,Andrews Chapel,McMinn,,,16266.0,1304840.0,Andrews Creek,Rutherford,Stream,75.0,FIRST_WORD,"First word match, different county",Andrews Chapel,McMinn,35.4345,-84.5872,1304840,35.8445,-86.3972,105.51393973829374
11233,Andrews Chapel,McMinn,,,26790.0,1275747.0,Andrews Hollow,Stewart,Valley,75.0,FIRST_WORD,"First word match, different county",Andrews Chapel,McMinn,35.4345,-84.5872,1275747,36.5045,-87.8472,196.71542479677473
11233,Andrews Chapel,McMinn,,,26790.0,1275747.0,Andrews Hollow,Stewart,Valley,75.0,FIRST_WORD,"First word match, different county",Andrews Chapel,McMinn,35.4345,-84.5872,1275747,36.5045,-87.8472,196.71542479677473
11263,Bellmont,Davidson,,,28242.0,1314663.0,Belmont,Anderson,Populated Place,83.33333333333333,FUZZY_GENERAL,"Fuzzy match (score: 93.33333333333333), different county",Bellmont,Davidson,36.1667,-86.7844,1314663,36.1034,-84.1888,144.9097635652697
11263,Bellmont,Davidson,,,29163.0,1314662.0,Belmont,Coffee,Populated Place,83.33333333333333,FUZZY_GENERAL,"Fuzzy match (score: 93.33333333333333), different county",Bellmont,Davidson,36.1667,-86.7844,1314662,35.4845,-86.0972,60.86236325880075
11263,Bellmont,Davidson,,,29503.0,1276976.0,Belmont,Jefferson,Populated Place,83.33333333333333,FUZZY_GENERAL,"Fuzzy match (score: 93.33333333333333), different county",Bellmont,Davidson,36.1667,-86.7844,1276976,36.0045,-83.4972,183.89145626585304
11656,Beech Grove,Humphreys,,,1703.0,1313303.0,Beech Grove (historical),Dickson,Populated Place,90.0,FUZZY_GENERAL,"Fuzzy match (score: 100.0), different county",Beech Grove,Humphreys,36.0145,-87.6972,1313303,36.1345,-87.3972,18.693970629786055
11656,Beech Grove,Humphreys,,,27670.0,1314650.0,Beech Grove,Hawkins,Populated Place,90.0,FUZZY_GENERAL,"Fuzzy match (score: 100.0), different county",Beech Grove,Humphreys,36.0145,-87.6972,1314650,36.4345,-82.9472,266.3302154157904
11656,Beech Grove,Humphreys,,,28413.0,1314649.0,Beech Grove,Knox,Populated Place,90.0,FUZZY_GENERAL,"Fuzzy match (score: 100.0), different county",Beech Grove,Humphreys,36.0145,-87.6972,1314649,36.0045,-83.9372,210.1509870508321
